<?xml version="1.0" encoding="UTF-8"?>
<kml xmlns="http://www.opengis.net/kml/2.2" xmlns:gx="http://www.google.com/kml/ext/2.2">
    <Document id="1">
        <Style id="6">
            <LineStyle id="8">
                <color>ffa000a0</color>
                <colorMode>normal</colorMode>
                <width>3</width>
            </LineStyle>
            <PolyStyle id="7">
                <color>33a000a0</color>
                <colorMode>normal</colorMode>
                <fill>1</fill>
                <outline>1</outline>
            </PolyStyle>
        </Style>
        <Style id="13">
            <LineStyle id="15">
                <color>ffa000a0</color>
                <colorMode>normal</colorMode>
                <width>3</width>
            </LineStyle>
            <PolyStyle id="14">
                <color>33a000a0</color>
                <colorMode>normal</colorMode>
                <fill>1</fill>
                <outline>1</outline>
            </PolyStyle>
        </Style>
        <Style id="20">
            <LineStyle id="22">
                <color>ffa000a0</color>
                <colorMode>normal</colorMode>
                <width>3</width>
            </LineStyle>
            <PolyStyle id="21">
                <color>33a000a0</color>
                <colorMode>normal</colorMode>
                <fill>1</fill>
                <outline>1</outline>
            </PolyStyle>
        </Style>
        <Style id="27">
            <LineStyle id="29">
                <color>ffa000a0</color>
                <colorMode>normal</colorMode>
                <width>3</width>
            </LineStyle>
            <PolyStyle id="28">
                <color>33a000a0</color>
                <colorMode>normal</colorMode>
                <fill>1</fill>
                <outline>1</outline>
            </PolyStyle>
        </Style>
        <Style id="34">
            <LineStyle id="36">
                <color>ffa000a0</color>
                <colorMode>normal</colorMode>
                <width>3</width>
            </LineStyle>
            <PolyStyle id="35">
                <color>33a000a0</color>
                <colorMode>normal</colorMode>
                <fill>1</fill>
                <outline>1</outline>
            </PolyStyle>
        </Style>
        <Style id="41">
            <LineStyle id="43">
                <color>ffa000a0</color>
                <colorMode>normal</colorMode>
                <width>3</width>
            </LineStyle>
            <PolyStyle id="42">
                <color>33a000a0</color>
                <colorMode>normal</colorMode>
                <fill>1</fill>
                <outline>1</outline>
            </PolyStyle>
        </Style>
        <Style id="48">
            <LineStyle id="50">
                <color>ffa000a0</color>
                <colorMode>normal</colorMode>
                <width>3</width>
            </LineStyle>
            <PolyStyle id="49">
                <color>33a000a0</color>
                <colorMode>normal</colorMode>
                <fill>1</fill>
                <outline>1</outline>
            </PolyStyle>
        </Style>
        <Style id="55">
            <LineStyle id="57">
                <color>ffa000a0</color>
                <colorMode>normal</colorMode>
                <width>3</width>
            </LineStyle>
            <PolyStyle id="56">
                <color>33a000a0</color>
                <colorMode>normal</colorMode>
                <fill>1</fill>
                <outline>1</outline>
            </PolyStyle>
        </Style>
        <Style id="62">
            <LineStyle id="64">
                <color>ffa000a0</color>
                <colorMode>normal</colorMode>
                <width>3</width>
            </LineStyle>
            <PolyStyle id="63">
                <color>33a000a0</color>
                <colorMode>normal</colorMode>
                <fill>1</fill>
                <outline>1</outline>
            </PolyStyle>
        </Style>
        <Placemark id="3">
            <name>CA091 (previously Yowlumni Disperser)</name>
            <description>Last Adjusted: 07/26/2026</description>
            <styleUrl>#6</styleUrl>
            <Polygon id="2">
                <outerBoundaryIs>
                    <LinearRing id="4">
                        <coordinates>-118.66629483478724,35.93060002563914,0.0 -118.63398254445408,35.9548257386222,0.0 -118.64296897601527,35.98881871784515,0.0 -118.68428642672541,35.99857815180284,0.0 -118.71659268385409,35.97434575576055,0.0 -118.70758753819852,35.940360613144456,0.0 -118.66629483478724,35.93060002563914,0.0</coordinates>
                    </LinearRing>
                </outerBoundaryIs>
            </Polygon>
        </Placemark>
        <Placemark id="10">
            <name>CA150 (previously Harvey 3)</name>
            <description>Last Adjusted: 07/27/2026</description>
            <styleUrl>#13</styleUrl>
            <Polygon id="9">
                <outerBoundaryIs>
                    <LinearRing id="11">
                        <coordinates>-121.20173769171,40.3604280957933,0.0 -121.16906756120268,40.38468826534612,0.0 -121.17914208323528,40.416938058362724,0.0 -121.22190518974901,40.42491963190156,0.0 -121.2545657036852,40.40065385075787,0.0 -121.24447274533357,40.368412111758936,0.0 -121.20173769171,40.3604280957933,0.0</coordinates>
                    </LinearRing>
                </outerBoundaryIs>
            </Polygon>
        </Placemark>
        <Placemark id="17">
            <name>CA107 (previously Harvey 1)</name>
            <description>Last Adjusted: 07/21/2026</description>
            <styleUrl>#20</styleUrl>
            <Polygon id="16">
                <outerBoundaryIs>
                    <LinearRing id="18">
                        <coordinates>-120.72540186843494,40.51370364069706,0.0 -120.69247701761871,40.5378401193386,0.0 -120.70243899664564,40.5701223613035,0.0 -120.74534471455488,40.578260291335525,0.0 -120.77826048011204,40.55411812612437,0.0 -120.7682796306124,40.52184372170153,0.0 -120.72540186843494,40.51370364069706,0.0</coordinates>
                    </LinearRing>
                </outerBoundaryIs>
            </Polygon>
        </Placemark>
        <Placemark id="24">
            <name>CA077; pack origin: Whaleback</name>
            <description>Last Adjusted: 07/25/2026</description>
            <styleUrl>#27</styleUrl>
            <Polygon id="23">
                <outerBoundaryIs>
                    <LinearRing id="25">
                        <coordinates>-121.27865285742055,41.37173352602799,0.0 -121.24567882942549,41.395863232799435,0.0 -121.25587807188687,41.42774849826679,0.0 -121.2990701172129,41.43549619582149,0.0 -121.3320342372513,41.41136098876328,0.0 -121.3218162381502,41.3794835886153,0.0 -121.27865285742055,41.37173352602799,0.0</coordinates>
                    </LinearRing>
                </outerBoundaryIs>
            </Polygon>
        </Placemark>
        <Placemark id="31">
            <name>CA124 (previously Whaleback Disperser 2)</name>
            <description>Last Adjusted: 07/19/2026</description>
            <styleUrl>#34</styleUrl>
            <Polygon id="30">
                <outerBoundaryIs>
                    <LinearRing id="32">
                        <coordinates>-121.60273191553689,40.737148525548236,0.0 -121.57011220094752,40.761440539317555,0.0 -121.58033196970896,40.79348916181908,0.0 -121.62318972529782,40.80123765248339,0.0 -121.65579928059647,40.77694014714649,0.0 -121.64556125756421,40.7448996467274,0.0 -121.60273191553689,40.737148525548236,0.0</coordinates>
                    </LinearRing>
                </outerBoundaryIs>
            </Polygon>
        </Placemark>
        <Placemark id="38">
            <name>CA127 (previously Whaleback 2)</name>
            <description>Last Adjusted: 07/26/2026</description>
            <styleUrl>#41</styleUrl>
            <Polygon id="37">
                <outerBoundaryIs>
                    <LinearRing id="39">
                        <coordinates>-122.05496442781796,41.5083826519601,0.0 -122.02228785027,41.53265700934091,0.0 -122.03270870500953,41.5643514584977,0.0 -122.075824326536,41.571763441894745,0.0 -122.10849005146366,41.54748375992291,0.0 -122.09805102599655,41.51579742310694,0.0 -122.05496442781796,41.5083826519601,0.0</coordinates>
                    </LinearRing>
                </outerBoundaryIs>
            </Polygon>
        </Placemark>
        <Placemark id="45">
            <name>CA147 (previously Whaleback 4)</name>
            <description>Last Adjusted: 07/27/2026</description>
            <styleUrl>#48</styleUrl>
            <Polygon id="44">
                <outerBoundaryIs>
                    <LinearRing id="46">
                        <coordinates>-122.05496442781796,41.5083826519601,0.0 -122.02228785027,41.53265700934091,0.0 -122.03270870500953,41.5643514584977,0.0 -122.075824326536,41.571763441894745,0.0 -122.10849005146366,41.54748375992291,0.0 -122.09805102599655,41.51579742310694,0.0 -122.05496442781796,41.5083826519601,0.0</coordinates>
                    </LinearRing>
                </outerBoundaryIs>
            </Polygon>
        </Placemark>
        <Placemark id="52">
            <name>CA121 (previously Whaleback Disperser 1)</name>
            <description>Last Adjusted: 07/26/2026</description>
            <styleUrl>#55</styleUrl>
            <Polygon id="51">
                <outerBoundaryIs>
                    <LinearRing id="53">
                        <coordinates>-122.05496442781796,41.5083826519601,0.0 -122.02228785027,41.53265700934091,0.0 -122.03270870500953,41.5643514584977,0.0 -122.075824326536,41.571763441894745,0.0 -122.10849005146366,41.54748375992291,0.0 -122.09805102599655,41.51579742310694,0.0 -122.05496442781796,41.5083826519601,0.0</coordinates>
                    </LinearRing>
                </outerBoundaryIs>
            </Polygon>
        </Placemark>
        <Placemark id="59">
            <name>CA039 (previously Whaleback 1)</name>
            <description>Last Adjusted: 07/27/2026</description>
            <styleUrl>#62</styleUrl>
            <Polygon id="58">
                <outerBoundaryIs>
                    <LinearRing id="60">
                        <coordinates>-122.05496442781796,41.5083826519601,0.0 -122.02228785027,41.53265700934091,0.0 -122.03270870500953,41.5643514584977,0.0 -122.075824326536,41.571763441894745,0.0 -122.10849005146366,41.54748375992291,0.0 -122.09805102599655,41.51579742310694,0.0 -122.05496442781796,41.5083826519601,0.0</coordinates>
                    </LinearRing>
                </outerBoundaryIs>
            </Polygon>
        </Placemark>
    </Document>
</kml>
