<?xml version="1.0" encoding="UTF-8"?>
<kml xmlns="http://www.opengis.net/kml/2.2" xmlns:gx="http://www.google.com/kml/ext/2.2">
    <Document id="1">
        <Style id="6">
            <LineStyle id="8">
                <color>ffa000a0</color>
                <colorMode>normal</colorMode>
                <width>3</width>
            </LineStyle>
            <PolyStyle id="7">
                <color>33a000a0</color>
                <colorMode>normal</colorMode>
                <fill>1</fill>
                <outline>1</outline>
            </PolyStyle>
        </Style>
        <Style id="13">
            <LineStyle id="15">
                <color>ffa000a0</color>
                <colorMode>normal</colorMode>
                <width>3</width>
            </LineStyle>
            <PolyStyle id="14">
                <color>33a000a0</color>
                <colorMode>normal</colorMode>
                <fill>1</fill>
                <outline>1</outline>
            </PolyStyle>
        </Style>
        <Style id="20">
            <LineStyle id="22">
                <color>ffa000a0</color>
                <colorMode>normal</colorMode>
                <width>3</width>
            </LineStyle>
            <PolyStyle id="21">
                <color>33a000a0</color>
                <colorMode>normal</colorMode>
                <fill>1</fill>
                <outline>1</outline>
            </PolyStyle>
        </Style>
        <Style id="27">
            <LineStyle id="29">
                <color>ffa000a0</color>
                <colorMode>normal</colorMode>
                <width>3</width>
            </LineStyle>
            <PolyStyle id="28">
                <color>33a000a0</color>
                <colorMode>normal</colorMode>
                <fill>1</fill>
                <outline>1</outline>
            </PolyStyle>
        </Style>
        <Style id="34">
            <LineStyle id="36">
                <color>ffa000a0</color>
                <colorMode>normal</colorMode>
                <width>3</width>
            </LineStyle>
            <PolyStyle id="35">
                <color>33a000a0</color>
                <colorMode>normal</colorMode>
                <fill>1</fill>
                <outline>1</outline>
            </PolyStyle>
        </Style>
        <Style id="41">
            <LineStyle id="43">
                <color>ffa000a0</color>
                <colorMode>normal</colorMode>
                <width>3</width>
            </LineStyle>
            <PolyStyle id="42">
                <color>33a000a0</color>
                <colorMode>normal</colorMode>
                <fill>1</fill>
                <outline>1</outline>
            </PolyStyle>
        </Style>
        <Style id="48">
            <LineStyle id="50">
                <color>ffa000a0</color>
                <colorMode>normal</colorMode>
                <width>3</width>
            </LineStyle>
            <PolyStyle id="49">
                <color>33a000a0</color>
                <colorMode>normal</colorMode>
                <fill>1</fill>
                <outline>1</outline>
            </PolyStyle>
        </Style>
        <Style id="55">
            <LineStyle id="57">
                <color>ffa000a0</color>
                <colorMode>normal</colorMode>
                <width>3</width>
            </LineStyle>
            <PolyStyle id="56">
                <color>33a000a0</color>
                <colorMode>normal</colorMode>
                <fill>1</fill>
                <outline>1</outline>
            </PolyStyle>
        </Style>
        <Style id="62">
            <LineStyle id="64">
                <color>ffa000a0</color>
                <colorMode>normal</colorMode>
                <width>3</width>
            </LineStyle>
            <PolyStyle id="63">
                <color>33a000a0</color>
                <colorMode>normal</colorMode>
                <fill>1</fill>
                <outline>1</outline>
            </PolyStyle>
        </Style>
        <Placemark id="3">
            <name>CA091 (previously Yowlumni Disperser)</name>
            <description>Last Adjusted: 08/13/2026</description>
            <styleUrl>#6</styleUrl>
            <Polygon id="2">
                <outerBoundaryIs>
                    <LinearRing id="4">
                        <coordinates>-118.73610652163083,35.75581760801286,0.0 -118.70387272620569,35.780073052264896,0.0 -118.71286356609028,35.81409933229584,0.0 -118.75410682287634,35.82386226829059,0.0 -118.78633452581339,35.79960011480015,0.0 -118.77732507912998,35.765581738836346,0.0 -118.73610652163083,35.75581760801286,0.0</coordinates>
                    </LinearRing>
                </outerBoundaryIs>
            </Polygon>
        </Placemark>
        <Placemark id="10">
            <name>CA131</name>
            <description>Last Adjusted: 08/12/2026</description>
            <styleUrl>#13</styleUrl>
            <Polygon id="9">
                <outerBoundaryIs>
                    <LinearRing id="11">
                        <coordinates>-120.47149784996357,39.946245743476595,0.0 -120.43865270273437,39.97040638232014,0.0 -120.44848975162101,40.00292337983288,0.0 -120.49119081888223,40.01127188785052,0.0 -120.52402728190555,39.987105455055946,0.0 -120.5141713790884,39.95459631245814,0.0 -120.47149784996357,39.946245743476595,0.0</coordinates>
                    </LinearRing>
                </outerBoundaryIs>
            </Polygon>
        </Placemark>
        <Placemark id="17">
            <name>CA107 (previously Harvey 1)</name>
            <description>Last Adjusted: 08/12/2026</description>
            <styleUrl>#20</styleUrl>
            <Polygon id="16">
                <outerBoundaryIs>
                    <LinearRing id="18">
                        <coordinates>-120.96798721229555,40.25558764580574,0.0 -120.93525102773111,40.27981260664248,0.0 -120.94525246312612,40.312139450343516,0.0 -120.98800868296652,40.320233350873124,0.0 -121.02073554426077,40.29600272188261,0.0 -121.01071552651602,40.26368386466692,0.0 -120.96798721229555,40.25558764580574,0.0</coordinates>
                    </LinearRing>
                </outerBoundaryIs>
            </Polygon>
        </Placemark>
        <Placemark id="24">
            <name>CA150 (previously Harvey 3)</name>
            <description>Last Adjusted: 08/09/2026</description>
            <styleUrl>#27</styleUrl>
            <Polygon id="23">
                <outerBoundaryIs>
                    <LinearRing id="25">
                        <coordinates>-120.8768755665305,40.481628265976006,0.0 -120.84402590561277,40.50580208250065,0.0 -120.85402555987724,40.53806861652614,0.0 -120.89689363167403,40.54615343507611,0.0 -120.92973403418522,40.52197395708072,0.0 -120.91971564092971,40.48971532620858,0.0 -120.8768755665305,40.481628265976006,0.0</coordinates>
                    </LinearRing>
                </outerBoundaryIs>
            </Polygon>
        </Placemark>
        <Placemark id="31">
            <name>CA124 (previously Whaleback Disperser 2)</name>
            <description>Last Adjusted: 08/06/2026</description>
            <styleUrl>#34</styleUrl>
            <Polygon id="30">
                <outerBoundaryIs>
                    <LinearRing id="32">
                        <coordinates>-121.60273191553689,40.737148525548236,0.0 -121.57011220094752,40.761440539317555,0.0 -121.58033196970896,40.79348916181908,0.0 -121.62318972529782,40.80123765248339,0.0 -121.65579928059647,40.77694014714649,0.0 -121.64556125756421,40.7448996467274,0.0 -121.60273191553689,40.737148525548236,0.0</coordinates>
                    </LinearRing>
                </outerBoundaryIs>
            </Polygon>
        </Placemark>
        <Placemark id="38">
            <name>CA077; pack origin: Whaleback</name>
            <description>Last Adjusted: 08/11/2026</description>
            <styleUrl>#41</styleUrl>
            <Polygon id="37">
                <outerBoundaryIs>
                    <LinearRing id="39">
                        <coordinates>-121.22529858911885,41.332053210138156,0.0 -121.19231472470145,41.356177402582574,0.0 -121.20249544344246,41.38808633892295,0.0 -121.24567882942549,41.395863232799435,0.0 -121.27865285742055,41.37173352602799,0.0 -121.26845335404708,41.339832443896896,0.0 -121.22529858911885,41.332053210138156,0.0</coordinates>
                    </LinearRing>
                </outerBoundaryIs>
            </Polygon>
        </Placemark>
        <Placemark id="45">
            <name>CA127 (previously Whaleback 2)</name>
            <description>Last Adjusted: 08/12/2026</description>
            <styleUrl>#48</styleUrl>
            <Polygon id="44">
                <outerBoundaryIs>
                    <LinearRing id="46">
                        <coordinates>-122.03270870500953,41.5643514584977,0.0 -122.00000325143122,41.58861271428945,0.0 -122.01042423997399,41.620291274482405,0.0 -122.05356891087933,41.6277004907641,0.0 -122.08626352532484,41.603433909993875,0.0 -122.075824326536,41.571763441894745,0.0 -122.03270870500953,41.5643514584977,0.0</coordinates>
                    </LinearRing>
                </outerBoundaryIs>
            </Polygon>
        </Placemark>
        <Placemark id="52">
            <name>CA121 (previously Whaleback Disperser 1)</name>
            <description>Last Adjusted: 08/12/2026</description>
            <styleUrl>#55</styleUrl>
            <Polygon id="51">
                <outerBoundaryIs>
                    <LinearRing id="53">
                        <coordinates>-122.03270870500953,41.5643514584977,0.0 -122.00000325143122,41.58861271428945,0.0 -122.01042423997399,41.620291274482405,0.0 -122.05356891087933,41.6277004907641,0.0 -122.08626352532484,41.603433909993875,0.0 -122.075824326536,41.571763441894745,0.0 -122.03270870500953,41.5643514584977,0.0</coordinates>
                    </LinearRing>
                </outerBoundaryIs>
            </Polygon>
        </Placemark>
        <Placemark id="59">
            <name>CA147 (previously Whaleback 4)</name>
            <description>Last Adjusted: 08/12/2026</description>
            <styleUrl>#62</styleUrl>
            <Polygon id="58">
                <outerBoundaryIs>
                    <LinearRing id="60">
                        <coordinates>-122.17125388032291,41.73732239562056,0.0 -122.13855220478646,41.7615864160727,0.0 -122.14902851130893,41.793176852081814,0.0 -122.1922246717977,41.80049517053584,0.0 -122.22491530683877,41.77622586951787,0.0 -122.21442084055712,41.74464353456258,0.0 -122.17125388032291,41.73732239562056,0.0</coordinates>
                    </LinearRing>
                </outerBoundaryIs>
            </Polygon>
        </Placemark>
    </Document>
</kml>
