<?xml version="1.0" encoding="UTF-8"?>
<kml xmlns="http://www.opengis.net/kml/2.2" xmlns:gx="http://www.google.com/kml/ext/2.2">
    <Document id="1">
        <Style id="6">
            <LineStyle id="8">
                <color>ffa000a0</color>
                <colorMode>normal</colorMode>
                <width>3</width>
            </LineStyle>
            <PolyStyle id="7">
                <color>33a000a0</color>
                <colorMode>normal</colorMode>
                <fill>1</fill>
                <outline>1</outline>
            </PolyStyle>
        </Style>
        <Style id="13">
            <LineStyle id="15">
                <color>ffa000a0</color>
                <colorMode>normal</colorMode>
                <width>3</width>
            </LineStyle>
            <PolyStyle id="14">
                <color>33a000a0</color>
                <colorMode>normal</colorMode>
                <fill>1</fill>
                <outline>1</outline>
            </PolyStyle>
        </Style>
        <Style id="20">
            <LineStyle id="22">
                <color>ffa000a0</color>
                <colorMode>normal</colorMode>
                <width>3</width>
            </LineStyle>
            <PolyStyle id="21">
                <color>33a000a0</color>
                <colorMode>normal</colorMode>
                <fill>1</fill>
                <outline>1</outline>
            </PolyStyle>
        </Style>
        <Style id="27">
            <LineStyle id="29">
                <color>ffa000a0</color>
                <colorMode>normal</colorMode>
                <width>3</width>
            </LineStyle>
            <PolyStyle id="28">
                <color>33a000a0</color>
                <colorMode>normal</colorMode>
                <fill>1</fill>
                <outline>1</outline>
            </PolyStyle>
        </Style>
        <Style id="34">
            <LineStyle id="36">
                <color>ffa000a0</color>
                <colorMode>normal</colorMode>
                <width>3</width>
            </LineStyle>
            <PolyStyle id="35">
                <color>33a000a0</color>
                <colorMode>normal</colorMode>
                <fill>1</fill>
                <outline>1</outline>
            </PolyStyle>
        </Style>
        <Style id="41">
            <LineStyle id="43">
                <color>ffa000a0</color>
                <colorMode>normal</colorMode>
                <width>3</width>
            </LineStyle>
            <PolyStyle id="42">
                <color>33a000a0</color>
                <colorMode>normal</colorMode>
                <fill>1</fill>
                <outline>1</outline>
            </PolyStyle>
        </Style>
        <Style id="48">
            <LineStyle id="50">
                <color>ffa000a0</color>
                <colorMode>normal</colorMode>
                <width>3</width>
            </LineStyle>
            <PolyStyle id="49">
                <color>33a000a0</color>
                <colorMode>normal</colorMode>
                <fill>1</fill>
                <outline>1</outline>
            </PolyStyle>
        </Style>
        <Style id="55">
            <LineStyle id="57">
                <color>ffa000a0</color>
                <colorMode>normal</colorMode>
                <width>3</width>
            </LineStyle>
            <PolyStyle id="56">
                <color>33a000a0</color>
                <colorMode>normal</colorMode>
                <fill>1</fill>
                <outline>1</outline>
            </PolyStyle>
        </Style>
        <Style id="62">
            <LineStyle id="64">
                <color>ffa000a0</color>
                <colorMode>normal</colorMode>
                <width>3</width>
            </LineStyle>
            <PolyStyle id="63">
                <color>33a000a0</color>
                <colorMode>normal</colorMode>
                <fill>1</fill>
                <outline>1</outline>
            </PolyStyle>
        </Style>
        <Placemark id="3">
            <name>CA091 (previously Yowlumni Disperser)</name>
            <description>Last Adjusted: 08/28/2026</description>
            <styleUrl>#6</styleUrl>
            <Polygon id="2">
                <outerBoundaryIs>
                    <LinearRing id="4">
                        <coordinates>-118.2414308707347,35.63734962571794,0.0 -118.20904647250661,35.66151137597911,0.0 -118.21789334707496,35.69564371010045,0.0 -118.25914353087994,35.705606621676075,0.0 -118.29152240860977,35.681438085250434,0.0 -118.28265663746551,35.647313427827775,0.0 -118.2414308707347,35.63734962571794,0.0</coordinates>
                    </LinearRing>
                </outerBoundaryIs>
            </Polygon>
        </Placemark>
        <Placemark id="10">
            <name>CA131</name>
            <description>Last Adjusted: 08/27/2026</description>
            <styleUrl>#13</styleUrl>
            <Polygon id="9">
                <outerBoundaryIs>
                    <LinearRing id="11">
                        <coordinates>-120.47149784996357,39.946245743476595,0.0 -120.43865270273437,39.97040638232014,0.0 -120.44848975162101,40.00292337983288,0.0 -120.49119081888223,40.01127188785052,0.0 -120.52402728190555,39.987105455055946,0.0 -120.5141713790884,39.95459631245814,0.0 -120.47149784996357,39.946245743476595,0.0</coordinates>
                    </LinearRing>
                </outerBoundaryIs>
            </Polygon>
        </Placemark>
        <Placemark id="17">
            <name>CA150 (previously Harvey 3)</name>
            <description>Last Adjusted: 08/24/2026</description>
            <styleUrl>#20</styleUrl>
            <Polygon id="16">
                <outerBoundaryIs>
                    <LinearRing id="18">
                        <coordinates>-120.74833573884617,40.45725670802773,0.0 -120.71543934684608,40.48140620682687,0.0 -120.72540186843494,40.51370364069706,0.0 -120.7682796306124,40.52184372170153,0.0 -120.80116692054918,40.49768853481335,0.0 -120.7911855679424,40.465398959247594,0.0 -120.74833573884617,40.45725670802773,0.0</coordinates>
                    </LinearRing>
                </outerBoundaryIs>
            </Polygon>
        </Placemark>
        <Placemark id="24">
            <name>CA107 (previously Harvey 1)</name>
            <description>Last Adjusted: 08/24/2026</description>
            <styleUrl>#27</styleUrl>
            <Polygon id="23">
                <outerBoundaryIs>
                    <LinearRing id="25">
                        <coordinates>-120.74833573884617,40.45725670802773,0.0 -120.71543934684608,40.48140620682687,0.0 -120.72540186843494,40.51370364069706,0.0 -120.7682796306124,40.52184372170153,0.0 -120.80116692054918,40.49768853481335,0.0 -120.7911855679424,40.465398959247594,0.0 -120.74833573884617,40.45725670802773,0.0</coordinates>
                    </LinearRing>
                </outerBoundaryIs>
            </Polygon>
        </Placemark>
        <Placemark id="31">
            <name>CA124 (previously Whaleback Disperser 2)</name>
            <description>Last Adjusted: 08/27/2026</description>
            <styleUrl>#34</styleUrl>
            <Polygon id="30">
                <outerBoundaryIs>
                    <LinearRing id="32">
                        <coordinates>-121.52726252047606,40.753663134990056,0.0 -121.49460423056438,40.77793694229943,0.0 -121.50480567789815,40.80999365542342,0.0 -121.54768375452767,40.817768474654414,0.0 -121.58033196970896,40.79348916181908,0.0 -121.57011220094752,40.761440539317555,0.0 -121.52726252047606,40.753663134990056,0.0</coordinates>
                    </LinearRing>
                </outerBoundaryIs>
            </Polygon>
        </Placemark>
        <Placemark id="38">
            <name>CA077; pack origin: Whaleback</name>
            <description>Last Adjusted: 08/27/2026</description>
            <styleUrl>#41</styleUrl>
            <Polygon id="37">
                <outerBoundaryIs>
                    <LinearRing id="39">
                        <coordinates>-121.27081745397129,41.21989939644046,0.0 -121.23789129254162,41.24405038528495,0.0 -121.24807257639205,41.27599085874438,0.0 -121.29119874451507,41.28377245260841,0.0 -121.32411503809348,41.25961594912318,0.0 -121.31391504954286,41.227683370579356,0.0 -121.27081745397129,41.21989939644046,0.0</coordinates>
                    </LinearRing>
                </outerBoundaryIs>
            </Polygon>
        </Placemark>
        <Placemark id="45">
            <name>CA127 (previously Whaleback 2)</name>
            <description>Last Adjusted: 08/27/2026</description>
            <styleUrl>#48</styleUrl>
            <Polygon id="44">
                <outerBoundaryIs>
                    <LinearRing id="46">
                        <coordinates>-122.07719145726749,41.45238496507058,0.0 -122.04454371834582,41.476672358605775,0.0 -122.05496442781796,41.5083826519601,0.0 -122.09805102599655,41.51579742310694,0.0 -122.1306878988995,41.49150470527933,0.0 -122.12024905812713,41.45980254454673,0.0 -122.07719145726749,41.45238496507058,0.0</coordinates>
                    </LinearRing>
                </outerBoundaryIs>
            </Polygon>
        </Placemark>
        <Placemark id="52">
            <name>CA121 (previously Whaleback Disperser 1)</name>
            <description>Last Adjusted: 08/28/2026</description>
            <styleUrl>#55</styleUrl>
            <Polygon id="51">
                <outerBoundaryIs>
                    <LinearRing id="53">
                        <coordinates>-122.00146461330601,41.46922831618862,0.0 -121.9687772544148,41.49349733396254,0.0 -121.97917976343048,41.52521572978674,0.0 -122.02228785027,41.53265700934091,0.0 -122.05496442781796,41.5083826519601,0.0 -122.04454371834582,41.476672358605775,0.0 -122.00146461330601,41.46922831618862,0.0</coordinates>
                    </LinearRing>
                </outerBoundaryIs>
            </Polygon>
        </Placemark>
        <Placemark id="59">
            <name>CA147 (previously Whaleback 4)</name>
            <description>Last Adjusted: 08/28/2026</description>
            <styleUrl>#62</styleUrl>
            <Polygon id="58">
                <outerBoundaryIs>
                    <LinearRing id="60">
                        <coordinates>-122.01042423997399,41.620291274482405,0.0 -121.97768987291462,41.644539363369596,0.0 -121.9881109837516,41.67620199000655,0.0 -122.03128473006872,41.683608459862036,0.0 -122.06400827157204,41.659355045520044,0.0 -122.05356891087933,41.6277004907641,0.0 -122.01042423997399,41.620291274482405,0.0</coordinates>
                    </LinearRing>
                </outerBoundaryIs>
            </Polygon>
        </Placemark>
    </Document>
</kml>
