<?xml version="1.0" encoding="UTF-8"?>
<kml xmlns="http://www.opengis.net/kml/2.2" xmlns:gx="http://www.google.com/kml/ext/2.2">
    <Document id="1">
        <Style id="6">
            <LineStyle id="8">
                <color>ffa000a0</color>
                <colorMode>normal</colorMode>
                <width>3</width>
            </LineStyle>
            <PolyStyle id="7">
                <color>33a000a0</color>
                <colorMode>normal</colorMode>
                <fill>1</fill>
                <outline>1</outline>
            </PolyStyle>
        </Style>
        <Style id="13">
            <LineStyle id="15">
                <color>ffa000a0</color>
                <colorMode>normal</colorMode>
                <width>3</width>
            </LineStyle>
            <PolyStyle id="14">
                <color>33a000a0</color>
                <colorMode>normal</colorMode>
                <fill>1</fill>
                <outline>1</outline>
            </PolyStyle>
        </Style>
        <Style id="20">
            <LineStyle id="22">
                <color>ffa000a0</color>
                <colorMode>normal</colorMode>
                <width>3</width>
            </LineStyle>
            <PolyStyle id="21">
                <color>33a000a0</color>
                <colorMode>normal</colorMode>
                <fill>1</fill>
                <outline>1</outline>
            </PolyStyle>
        </Style>
        <Style id="27">
            <LineStyle id="29">
                <color>ffa000a0</color>
                <colorMode>normal</colorMode>
                <width>3</width>
            </LineStyle>
            <PolyStyle id="28">
                <color>33a000a0</color>
                <colorMode>normal</colorMode>
                <fill>1</fill>
                <outline>1</outline>
            </PolyStyle>
        </Style>
        <Style id="34">
            <LineStyle id="36">
                <color>ffa000a0</color>
                <colorMode>normal</colorMode>
                <width>3</width>
            </LineStyle>
            <PolyStyle id="35">
                <color>33a000a0</color>
                <colorMode>normal</colorMode>
                <fill>1</fill>
                <outline>1</outline>
            </PolyStyle>
        </Style>
        <Style id="41">
            <LineStyle id="43">
                <color>ffa000a0</color>
                <colorMode>normal</colorMode>
                <width>3</width>
            </LineStyle>
            <PolyStyle id="42">
                <color>33a000a0</color>
                <colorMode>normal</colorMode>
                <fill>1</fill>
                <outline>1</outline>
            </PolyStyle>
        </Style>
        <Style id="48">
            <LineStyle id="50">
                <color>ffa000a0</color>
                <colorMode>normal</colorMode>
                <width>3</width>
            </LineStyle>
            <PolyStyle id="49">
                <color>33a000a0</color>
                <colorMode>normal</colorMode>
                <fill>1</fill>
                <outline>1</outline>
            </PolyStyle>
        </Style>
        <Style id="55">
            <LineStyle id="57">
                <color>ffa000a0</color>
                <colorMode>normal</colorMode>
                <width>3</width>
            </LineStyle>
            <PolyStyle id="56">
                <color>33a000a0</color>
                <colorMode>normal</colorMode>
                <fill>1</fill>
                <outline>1</outline>
            </PolyStyle>
        </Style>
        <Style id="62">
            <LineStyle id="64">
                <color>ffa000a0</color>
                <colorMode>normal</colorMode>
                <width>3</width>
            </LineStyle>
            <PolyStyle id="63">
                <color>33a000a0</color>
                <colorMode>normal</colorMode>
                <fill>1</fill>
                <outline>1</outline>
            </PolyStyle>
        </Style>
        <Placemark id="3">
            <name>CA091 (previously Yowlumni Disperser)</name>
            <description>Last Adjusted: 08/23/2026</description>
            <styleUrl>#6</styleUrl>
            <Polygon id="2">
                <outerBoundaryIs>
                    <LinearRing id="4">
                        <coordinates>-118.41523338982931,35.711203396442144,0.0 -118.38289185839814,35.7353954822463,0.0 -118.39179208101176,35.76948280391167,0.0 -118.43305265634521,35.77937029272066,0.0 -118.46538846262922,35.75517145337409,0.0 -118.45646943325991,35.72109188313311,0.0 -118.41523338982931,35.711203396442144,0.0</coordinates>
                    </LinearRing>
                </outerBoundaryIs>
            </Polygon>
        </Placemark>
        <Placemark id="10">
            <name>CA131</name>
            <description>Last Adjusted: 08/22/2026</description>
            <styleUrl>#13</styleUrl>
            <Polygon id="9">
                <outerBoundaryIs>
                    <LinearRing id="11">
                        <coordinates>-120.47149784996357,39.946245743476595,0.0 -120.43865270273437,39.97040638232014,0.0 -120.44848975162101,40.00292337983288,0.0 -120.49119081888223,40.01127188785052,0.0 -120.52402728190555,39.987105455055946,0.0 -120.5141713790884,39.95459631245814,0.0 -120.47149784996357,39.946245743476595,0.0</coordinates>
                    </LinearRing>
                </outerBoundaryIs>
            </Polygon>
        </Placemark>
        <Placemark id="17">
            <name>CA107 (previously Harvey 1)</name>
            <description>Last Adjusted: 08/23/2026</description>
            <styleUrl>#20</styleUrl>
            <Polygon id="16">
                <outerBoundaryIs>
                    <LinearRing id="18">
                        <coordinates>-120.84689301827,40.384745092917534,0.0 -120.81406257412493,40.40892612010659,0.0 -120.82404441742113,40.441230818327625,0.0 -120.86687544853139,40.44934658158245,0.0 -120.89969668762957,40.425159877172504,0.0 -120.88969611822723,40.39286309092939,0.0 -120.84689301827,40.384745092917534,0.0</coordinates>
                    </LinearRing>
                </outerBoundaryIs>
            </Polygon>
        </Placemark>
        <Placemark id="24">
            <name>CA150 (previously Harvey 3)</name>
            <description>Last Adjusted: 08/18/2026</description>
            <styleUrl>#27</styleUrl>
            <Polygon id="23">
                <outerBoundaryIs>
                    <LinearRing id="25">
                        <coordinates>-121.05827090988238,40.54609375439224,0.0 -121.02547770443947,40.57029740504004,0.0 -121.035532649469,40.60250981065009,0.0 -121.07839943727866,40.610510610499375,0.0 -121.11118315847762,40.58630133972915,0.0 -121.10110959382338,40.55409689338784,0.0 -121.05827090988238,40.54609375439224,0.0</coordinates>
                    </LinearRing>
                </outerBoundaryIs>
            </Polygon>
        </Placemark>
        <Placemark id="31">
            <name>CA124 (previously Whaleback Disperser 2)</name>
            <description>Last Adjusted: 08/22/2026</description>
            <styleUrl>#34</styleUrl>
            <Polygon id="30">
                <outerBoundaryIs>
                    <LinearRing id="32">
                        <coordinates>-121.60273191553689,40.737148525548236,0.0 -121.57011220094752,40.761440539317555,0.0 -121.58033196970896,40.79348916181908,0.0 -121.62318972529782,40.80123765248339,0.0 -121.65579928059647,40.77694014714649,0.0 -121.64556125756421,40.7448996467274,0.0 -121.60273191553689,40.737148525548236,0.0</coordinates>
                    </LinearRing>
                </outerBoundaryIs>
            </Polygon>
        </Placemark>
        <Placemark id="38">
            <name>CA077; pack origin: Whaleback</name>
            <description>Last Adjusted: 08/23/2026</description>
            <styleUrl>#41</styleUrl>
            <Polygon id="37">
                <outerBoundaryIs>
                    <LinearRing id="39">
                        <coordinates>-121.27081745397129,41.21989939644046,0.0 -121.23789129254162,41.24405038528495,0.0 -121.24807257639205,41.27599085874438,0.0 -121.29119874451507,41.28377245260841,0.0 -121.32411503809348,41.25961594912318,0.0 -121.31391504954286,41.227683370579356,0.0 -121.27081745397129,41.21989939644046,0.0</coordinates>
                    </LinearRing>
                </outerBoundaryIs>
            </Polygon>
        </Placemark>
        <Placemark id="45">
            <name>CA127 (previously Whaleback 2)</name>
            <description>Last Adjusted: 08/22/2026</description>
            <styleUrl>#48</styleUrl>
            <Polygon id="44">
                <outerBoundaryIs>
                    <LinearRing id="46">
                        <coordinates>-122.05496442781796,41.5083826519601,0.0 -122.02228785027,41.53265700934091,0.0 -122.03270870500953,41.5643514584977,0.0 -122.075824326536,41.571763441894745,0.0 -122.10849005146366,41.54748375992291,0.0 -122.09805102599655,41.51579742310694,0.0 -122.05496442781796,41.5083826519601,0.0</coordinates>
                    </LinearRing>
                </outerBoundaryIs>
            </Polygon>
        </Placemark>
        <Placemark id="52">
            <name>CA121 (previously Whaleback Disperser 1)</name>
            <description>Last Adjusted: 08/23/2026</description>
            <styleUrl>#55</styleUrl>
            <Polygon id="51">
                <outerBoundaryIs>
                    <LinearRing id="53">
                        <coordinates>-121.9568661568964,41.58117417701506,0.0 -121.92412103584168,41.605416925574154,0.0 -121.93452374478755,41.637103547737105,0.0 -121.97768987291462,41.644539363369596,0.0 -122.01042423997399,41.620291274482405,0.0 -122.00000325143122,41.58861271428945,0.0 -121.9568661568964,41.58117417701506,0.0</coordinates>
                    </LinearRing>
                </outerBoundaryIs>
            </Polygon>
        </Placemark>
        <Placemark id="59">
            <name>CA147 (previously Whaleback 4)</name>
            <description>Last Adjusted: 08/22/2026</description>
            <styleUrl>#62</styleUrl>
            <Polygon id="58">
                <outerBoundaryIs>
                    <LinearRing id="60">
                        <coordinates>-121.9568661568964,41.58117417701506,0.0 -121.92412103584168,41.605416925574154,0.0 -121.93452374478755,41.637103547737105,0.0 -121.97768987291462,41.644539363369596,0.0 -122.01042423997399,41.620291274482405,0.0 -122.00000325143122,41.58861271428945,0.0 -121.9568661568964,41.58117417701506,0.0</coordinates>
                    </LinearRing>
                </outerBoundaryIs>
            </Polygon>
        </Placemark>
    </Document>
</kml>
