<?xml version="1.0" encoding="UTF-8"?>
<kml xmlns="http://www.opengis.net/kml/2.2" xmlns:gx="http://www.google.com/kml/ext/2.2">
    <Document id="1">
        <Style id="6">
            <LineStyle id="8">
                <color>ffa000a0</color>
                <colorMode>normal</colorMode>
                <width>3</width>
            </LineStyle>
            <PolyStyle id="7">
                <color>33a000a0</color>
                <colorMode>normal</colorMode>
                <fill>1</fill>
                <outline>1</outline>
            </PolyStyle>
        </Style>
        <Style id="13">
            <LineStyle id="15">
                <color>ffa000a0</color>
                <colorMode>normal</colorMode>
                <width>3</width>
            </LineStyle>
            <PolyStyle id="14">
                <color>33a000a0</color>
                <colorMode>normal</colorMode>
                <fill>1</fill>
                <outline>1</outline>
            </PolyStyle>
        </Style>
        <Style id="20">
            <LineStyle id="22">
                <color>ffa000a0</color>
                <colorMode>normal</colorMode>
                <width>3</width>
            </LineStyle>
            <PolyStyle id="21">
                <color>33a000a0</color>
                <colorMode>normal</colorMode>
                <fill>1</fill>
                <outline>1</outline>
            </PolyStyle>
        </Style>
        <Style id="27">
            <LineStyle id="29">
                <color>ffa000a0</color>
                <colorMode>normal</colorMode>
                <width>3</width>
            </LineStyle>
            <PolyStyle id="28">
                <color>33a000a0</color>
                <colorMode>normal</colorMode>
                <fill>1</fill>
                <outline>1</outline>
            </PolyStyle>
        </Style>
        <Style id="34">
            <LineStyle id="36">
                <color>ffa000a0</color>
                <colorMode>normal</colorMode>
                <width>3</width>
            </LineStyle>
            <PolyStyle id="35">
                <color>33a000a0</color>
                <colorMode>normal</colorMode>
                <fill>1</fill>
                <outline>1</outline>
            </PolyStyle>
        </Style>
        <Style id="41">
            <LineStyle id="43">
                <color>ffa000a0</color>
                <colorMode>normal</colorMode>
                <width>3</width>
            </LineStyle>
            <PolyStyle id="42">
                <color>33a000a0</color>
                <colorMode>normal</colorMode>
                <fill>1</fill>
                <outline>1</outline>
            </PolyStyle>
        </Style>
        <Style id="48">
            <LineStyle id="50">
                <color>ffa000a0</color>
                <colorMode>normal</colorMode>
                <width>3</width>
            </LineStyle>
            <PolyStyle id="49">
                <color>33a000a0</color>
                <colorMode>normal</colorMode>
                <fill>1</fill>
                <outline>1</outline>
            </PolyStyle>
        </Style>
        <Style id="55">
            <LineStyle id="57">
                <color>ffa000a0</color>
                <colorMode>normal</colorMode>
                <width>3</width>
            </LineStyle>
            <PolyStyle id="56">
                <color>33a000a0</color>
                <colorMode>normal</colorMode>
                <fill>1</fill>
                <outline>1</outline>
            </PolyStyle>
        </Style>
        <Style id="62">
            <LineStyle id="64">
                <color>ffa000a0</color>
                <colorMode>normal</colorMode>
                <width>3</width>
            </LineStyle>
            <PolyStyle id="63">
                <color>33a000a0</color>
                <colorMode>normal</colorMode>
                <fill>1</fill>
                <outline>1</outline>
            </PolyStyle>
        </Style>
        <Style id="69">
            <LineStyle id="71">
                <color>ffa000a0</color>
                <colorMode>normal</colorMode>
                <width>3</width>
            </LineStyle>
            <PolyStyle id="70">
                <color>33a000a0</color>
                <colorMode>normal</colorMode>
                <fill>1</fill>
                <outline>1</outline>
            </PolyStyle>
        </Style>
        <Placemark id="3">
            <name>CA091 (previously Yowlumni Disperser)</name>
            <description>Last Adjusted: 09/14/2026</description>
            <styleUrl>#6</styleUrl>
            <Polygon id="2">
                <outerBoundaryIs>
                    <LinearRing id="4">
                        <coordinates>-118.90601462691643,35.668441941223186,0.0 -118.87387143143349,35.692739888041515,0.0 -118.8829008030332,35.726761251091666,0.0 -118.92409184678688,35.736476666597326,0.0 -118.9562287687547,35.712172013068084,0.0 -118.94718093519063,35.67815865496599,0.0 -118.90601462691643,35.668441941223186,0.0</coordinates>
                    </LinearRing>
                </outerBoundaryIs>
            </Polygon>
        </Placemark>
        <Placemark id="10">
            <name>CA195</name>
            <description>Last Adjusted: 09/14/2026</description>
            <styleUrl>#13</styleUrl>
            <Polygon id="9">
                <outerBoundaryIs>
                    <LinearRing id="11">
                        <coordinates>-120.22623649060219,39.52952401597202,0.0 -120.19342476184852,39.55368733618575,0.0 -120.20315499628641,39.58638278534556,0.0 -120.24571586234323,39.59490707812652,0.0 -120.27851926579541,39.570737871915135,0.0 -120.26877014541387,39.538050263209506,0.0 -120.22623649060219,39.52952401597202,0.0</coordinates>
                    </LinearRing>
                </outerBoundaryIs>
            </Polygon>
        </Placemark>
        <Placemark id="17">
            <name>CA131</name>
            <description>Last Adjusted: 09/15/2026</description>
            <styleUrl>#20</styleUrl>
            <Polygon id="16">
                <outerBoundaryIs>
                    <LinearRing id="18">
                        <coordinates>-120.41899613330907,39.905335047540675,0.0 -120.38614237079459,39.929489878477995,0.0 -120.39596120739155,39.96202946480565,0.0 -120.43865270273437,39.97040638232014,0.0 -120.47149784996357,39.946245743476595,0.0 -120.46166013431178,39.913713999299105,0.0 -120.41899613330907,39.905335047540675,0.0</coordinates>
                    </LinearRing>
                </outerBoundaryIs>
            </Polygon>
        </Placemark>
        <Placemark id="24">
            <name>CA107 (previously Harvey 1)</name>
            <description>Last Adjusted: 09/15/2026</description>
            <styleUrl>#27</styleUrl>
            <Polygon id="23">
                <outerBoundaryIs>
                    <LinearRing id="25">
                        <coordinates>-120.57370335570053,40.54559786698405,0.0 -120.54070358985548,40.56969669382177,0.0 -120.55062763108532,40.60199451190864,0.0 -120.59357045740572,40.61018573592237,0.0 -120.62656131232468,40.5860811978493,0.0 -120.61661826941081,40.55379115129675,0.0 -120.57370335570053,40.54559786698405,0.0</coordinates>
                    </LinearRing>
                </outerBoundaryIs>
            </Polygon>
        </Placemark>
        <Placemark id="31">
            <name>CA150 (previously Harvey 3)</name>
            <description>Last Adjusted: 09/15/2026</description>
            <styleUrl>#34</styleUrl>
            <Polygon id="30">
                <outerBoundaryIs>
                    <LinearRing id="32">
                        <coordinates>-120.98261975153409,40.56226782677051,0.0 -120.94978867733226,40.58645295205806,0.0 -120.95982493660608,40.61867328450404,0.0 -121.00271097353614,40.62670056900648,0.0 -121.035532649469,40.60250981065009,0.0 -121.02547770443947,40.57029740504004,0.0 -120.98261975153409,40.56226782677051,0.0</coordinates>
                    </LinearRing>
                </outerBoundaryIs>
            </Polygon>
        </Placemark>
        <Placemark id="38">
            <name>CA124 (previously Whaleback Disperser 2)</name>
            <description>Last Adjusted: 09/15/2026</description>
            <styleUrl>#41</styleUrl>
            <Polygon id="37">
                <outerBoundaryIs>
                    <LinearRing id="39">
                        <coordinates>-121.67814233403551,40.72058950654726,0.0 -121.64556125756421,40.7448996467274,0.0 -121.65579928059647,40.77694014714649,0.0 -121.69863658514248,40.784662357933335,0.0 -121.73120741807593,40.76034674024436,0.0 -121.72095120797877,40.7283143932676,0.0 -121.67814233403551,40.72058950654726,0.0</coordinates>
                    </LinearRing>
                </outerBoundaryIs>
            </Polygon>
        </Placemark>
        <Placemark id="45">
            <name>CA077; pack origin: Whaleback</name>
            <description>Last Adjusted: 09/14/2026</description>
            <styleUrl>#48</styleUrl>
            <Polygon id="44">
                <outerBoundaryIs>
                    <LinearRing id="46">
                        <coordinates>-121.32411503809348,41.25961594912318,0.0 -121.29119874451507,41.28377245260841,0.0 -121.30139849656962,41.31568930582326,0.0 -121.34453323709009,41.323441753719884,0.0 -121.37743959155782,41.299279749781135,0.0 -121.36722116279581,41.26737080255233,0.0 -121.32411503809348,41.25961594912318,0.0</coordinates>
                    </LinearRing>
                </outerBoundaryIs>
            </Polygon>
        </Placemark>
        <Placemark id="52">
            <name>CA127 (previously Whaleback 2)</name>
            <description>Last Adjusted: 09/14/2026</description>
            <styleUrl>#55</styleUrl>
            <Polygon id="51">
                <outerBoundaryIs>
                    <LinearRing id="53">
                        <coordinates>-121.9881109837516,41.67620199000655,0.0 -121.95534766571393,41.700436846793366,0.0 -121.96576888729102,41.73208349545645,0.0 -122.00897173505444,41.73948723962929,0.0 -122.04172424120254,41.71524705682258,0.0 -122.03128473006872,41.683608459862036,0.0 -121.9881109837516,41.67620199000655,0.0</coordinates>
                    </LinearRing>
                </outerBoundaryIs>
            </Polygon>
        </Placemark>
        <Placemark id="59">
            <name>CA121 (previously Whaleback Disperser 1)</name>
            <description>Last Adjusted: 09/15/2026</description>
            <styleUrl>#62</styleUrl>
            <Polygon id="58">
                <outerBoundaryIs>
                    <LinearRing id="60">
                        <coordinates>-121.8897523077237,41.7488746205873,0.0 -121.85692026275345,41.77307747599169,0.0 -121.86732318447896,41.804716103915695,0.0 -121.9105765687767,41.81214387899311,0.0 -121.943397901449,41.78793568151332,0.0 -121.93297658073121,41.756305055067244,0.0 -121.8897523077237,41.7488746205873,0.0</coordinates>
                    </LinearRing>
                </outerBoundaryIs>
            </Polygon>
        </Placemark>
        <Placemark id="66">
            <name>CA147 (previously Whaleback 4)</name>
            <description>Last Adjusted: 09/15/2026</description>
            <styleUrl>#69</styleUrl>
            <Polygon id="65">
                <outerBoundaryIs>
                    <LinearRing id="67">
                        <coordinates>-121.8897523077237,41.7488746205873,0.0 -121.85692026275345,41.77307747599169,0.0 -121.86732318447896,41.804716103915695,0.0 -121.9105765687767,41.81214387899311,0.0 -121.943397901449,41.78793568151332,0.0 -121.93297658073121,41.756305055067244,0.0 -121.8897523077237,41.7488746205873,0.0</coordinates>
                    </LinearRing>
                </outerBoundaryIs>
            </Polygon>
        </Placemark>
    </Document>
</kml>
