<?xml version="1.0" encoding="UTF-8"?>
<kml xmlns="http://www.opengis.net/kml/2.2" xmlns:gx="http://www.google.com/kml/ext/2.2">
    <Document id="1">
        <name>CDFW Wolf Tracker</name>
        <Placemark id="12">
            <name>Unknown Wolf - N/a</name>
            <description>Name: Unknown Wolf
Pack Origin: Beyem Seyo
Most Recent Adj: 09/14/2026
Time of Day: N/A</description>
            <Polygon id="11">
                <outerBoundaryIs>
                    <LinearRing id="13">
                        <coordinates>-118.90601462691643,35.668441941223186,0.0 -118.87387143143349,35.692739888041515,0.0 -118.8829008030332,35.726761251091666,0.0 -118.92409184678688,35.736476666597326,0.0 -118.9562287687547,35.712172013068084,0.0 -118.94718093519063,35.67815865496599,0.0 -118.90601462691643,35.668441941223186,0.0</coordinates>
                    </LinearRing>
                </outerBoundaryIs>
            </Polygon>
        </Placemark>
        <Placemark id="16">
            <name>Unknown Wolf - N/a</name>
            <description>Name: Unknown Wolf
Pack Origin: Long Valley
Most Recent Adj: 09/14/2026
Time of Day: N/A</description>
            <Polygon id="15">
                <outerBoundaryIs>
                    <LinearRing id="17">
                        <coordinates>-120.22623649060219,39.52952401597202,0.0 -120.19342476184852,39.55368733618575,0.0 -120.20315499628641,39.58638278534556,0.0 -120.24571586234323,39.59490707812652,0.0 -120.27851926579541,39.570737871915135,0.0 -120.26877014541387,39.538050263209506,0.0 -120.22623649060219,39.52952401597202,0.0</coordinates>
                    </LinearRing>
                </outerBoundaryIs>
            </Polygon>
        </Placemark>
        <Placemark id="20">
            <name>Unknown Wolf - N/a</name>
            <description>Name: Unknown Wolf
Pack Origin: Grizzly
Most Recent Adj: 09/14/2026
Time of Day: N/A</description>
            <Polygon id="19">
                <outerBoundaryIs>
                    <LinearRing id="21">
                        <coordinates>-120.41899613330907,39.905335047540675,0.0 -120.38614237079459,39.929489878477995,0.0 -120.39596120739155,39.96202946480565,0.0 -120.43865270273437,39.97040638232014,0.0 -120.47149784996357,39.946245743476595,0.0 -120.46166013431178,39.913713999299105,0.0 -120.41899613330907,39.905335047540675,0.0</coordinates>
                    </LinearRing>
                </outerBoundaryIs>
            </Polygon>
        </Placemark>
        <Placemark id="24">
            <name>Unknown Wolf - N/a</name>
            <description>Name: Unknown Wolf
Pack Origin: Harvey
Most Recent Adj: 09/14/2026
Time of Day: N/A</description>
            <Polygon id="23">
                <outerBoundaryIs>
                    <LinearRing id="25">
                        <coordinates>-121.00538570237202,40.505834272714196,0.0 -120.97258308256839,40.53003228889809,0.0 -120.98261975153409,40.56226782677051,0.0 -121.02547770443947,40.57029740504004,0.0 -121.05827090988238,40.54609375439224,0.0 -121.04821559445591,40.51386616410586,0.0 -121.00538570237202,40.505834272714196,0.0</coordinates>
                    </LinearRing>
                </outerBoundaryIs>
            </Polygon>
        </Placemark>
        <Placemark id="28">
            <name>Unknown Wolf - N/a</name>
            <description>Name: Unknown Wolf
Pack Origin: Harvey
Most Recent Adj: 09/14/2026
Time of Day: N/A</description>
            <Polygon id="27">
                <outerBoundaryIs>
                    <LinearRing id="29">
                        <coordinates>-120.98261975153409,40.56226782677051,0.0 -120.94978867733226,40.58645295205806,0.0 -120.95982493660608,40.61867328450404,0.0 -121.00271097353614,40.62670056900648,0.0 -121.035532649469,40.60250981065009,0.0 -121.02547770443947,40.57029740504004,0.0 -120.98261975153409,40.56226782677051,0.0</coordinates>
                    </LinearRing>
                </outerBoundaryIs>
            </Polygon>
        </Placemark>
        <Placemark id="32">
            <name>Unknown Wolf - N/a</name>
            <description>Name: Unknown Wolf
Pack Origin: Whaleback
Most Recent Adj: 09/14/2026
Time of Day: N/A</description>
            <Polygon id="31">
                <outerBoundaryIs>
                    <LinearRing id="33">
                        <coordinates>-121.87315897677826,40.57451526599803,0.0 -121.84071212274276,40.59888622197987,0.0 -121.85098638784791,40.63094078253265,0.0 -121.89372550019846,40.63861613367881,0.0 -121.92616191579897,40.6142397263898,0.0 -121.91586967543007,40.58219342317753,0.0 -121.87315897677826,40.57451526599803,0.0</coordinates>
                    </LinearRing>
                </outerBoundaryIs>
            </Polygon>
        </Placemark>
        <Placemark id="36">
            <name>Unknown Wolf - N/a</name>
            <description>Name: Unknown Wolf
Pack Origin: Whaleback
Most Recent Adj: 09/14/2026
Time of Day: N/A</description>
            <Polygon id="35">
                <outerBoundaryIs>
                    <LinearRing id="37">
                        <coordinates>-121.32411503809348,41.25961594912318,0.0 -121.29119874451507,41.28377245260841,0.0 -121.30139849656962,41.31568930582326,0.0 -121.34453323709009,41.323441753719884,0.0 -121.37743959155782,41.299279749781135,0.0 -121.36722116279581,41.26737080255233,0.0 -121.32411503809348,41.25961594912318,0.0</coordinates>
                    </LinearRing>
                </outerBoundaryIs>
            </Polygon>
        </Placemark>
        <Placemark id="40">
            <name>Unknown Wolf - N/a</name>
            <description>Name: Unknown Wolf
Pack Origin: Whaleback
Most Recent Adj: 09/13/2026
Time of Day: N/A</description>
            <Polygon id="39">
                <outerBoundaryIs>
                    <LinearRing id="41">
                        <coordinates>-122.11761817675229,41.69836543683882,0.0 -122.0849055324091,41.72262416171737,0.0 -122.09536344213994,41.754238695064316,0.0 -122.13855220478646,41.7615864160727,0.0 -122.17125388032291,41.73732239562056,0.0 -122.16077778065524,41.7057159536965,0.0 -122.11761817675229,41.69836543683882,0.0</coordinates>
                    </LinearRing>
                </outerBoundaryIs>
            </Polygon>
        </Placemark>
        <Placemark id="44">
            <name>Unknown Wolf - N/a</name>
            <description>Name: Unknown Wolf
Pack Origin: Whaleback
Most Recent Adj: 09/14/2026
Time of Day: N/A</description>
            <Polygon id="43">
                <outerBoundaryIs>
                    <LinearRing id="45">
                        <coordinates>-121.9881109837516,41.67620199000655,0.0 -121.95534766571393,41.700436846793366,0.0 -121.96576888729102,41.73208349545645,0.0 -122.00897173505444,41.73948723962929,0.0 -122.04172424120254,41.71524705682258,0.0 -122.03128473006872,41.683608459862036,0.0 -121.9881109837516,41.67620199000655,0.0</coordinates>
                    </LinearRing>
                </outerBoundaryIs>
            </Polygon>
        </Placemark>
        <Placemark id="48">
            <name>Unknown Wolf - N/a</name>
            <description>Name: Unknown Wolf
Pack Origin: Whaleback
Most Recent Adj: 09/14/2026
Time of Day: N/A</description>
            <Polygon id="47">
                <outerBoundaryIs>
                    <LinearRing id="49">
                        <coordinates>-122.04172424120254,41.71524705682258,0.0 -122.00897173505444,41.73948723962929,0.0 -122.01941138512164,41.77110983451664,0.0 -122.06262181962808,41.77848418904405,0.0 -122.09536344213994,41.754238695064316,0.0 -122.0849055324091,41.72262416171737,0.0 -122.04172424120254,41.71524705682258,0.0</coordinates>
                    </LinearRing>
                </outerBoundaryIs>
            </Polygon>
        </Placemark>
    </Document>
</kml>
