<?xml version="1.0" encoding="UTF-8"?>
<kml xmlns="http://www.opengis.net/kml/2.2" xmlns:gx="http://www.google.com/kml/ext/2.2">
    <Document id="1">
        <Style id="6">
            <LineStyle id="8">
                <color>ffa000a0</color>
                <colorMode>normal</colorMode>
                <width>3</width>
            </LineStyle>
            <PolyStyle id="7">
                <color>33a000a0</color>
                <colorMode>normal</colorMode>
                <fill>1</fill>
                <outline>1</outline>
            </PolyStyle>
        </Style>
        <Style id="13">
            <LineStyle id="15">
                <color>ffa000a0</color>
                <colorMode>normal</colorMode>
                <width>3</width>
            </LineStyle>
            <PolyStyle id="14">
                <color>33a000a0</color>
                <colorMode>normal</colorMode>
                <fill>1</fill>
                <outline>1</outline>
            </PolyStyle>
        </Style>
        <Style id="20">
            <LineStyle id="22">
                <color>ffa000a0</color>
                <colorMode>normal</colorMode>
                <width>3</width>
            </LineStyle>
            <PolyStyle id="21">
                <color>33a000a0</color>
                <colorMode>normal</colorMode>
                <fill>1</fill>
                <outline>1</outline>
            </PolyStyle>
        </Style>
        <Style id="27">
            <LineStyle id="29">
                <color>ffa000a0</color>
                <colorMode>normal</colorMode>
                <width>3</width>
            </LineStyle>
            <PolyStyle id="28">
                <color>33a000a0</color>
                <colorMode>normal</colorMode>
                <fill>1</fill>
                <outline>1</outline>
            </PolyStyle>
        </Style>
        <Style id="34">
            <LineStyle id="36">
                <color>ffa000a0</color>
                <colorMode>normal</colorMode>
                <width>3</width>
            </LineStyle>
            <PolyStyle id="35">
                <color>33a000a0</color>
                <colorMode>normal</colorMode>
                <fill>1</fill>
                <outline>1</outline>
            </PolyStyle>
        </Style>
        <Style id="41">
            <LineStyle id="43">
                <color>ffa000a0</color>
                <colorMode>normal</colorMode>
                <width>3</width>
            </LineStyle>
            <PolyStyle id="42">
                <color>33a000a0</color>
                <colorMode>normal</colorMode>
                <fill>1</fill>
                <outline>1</outline>
            </PolyStyle>
        </Style>
        <Style id="48">
            <LineStyle id="50">
                <color>ffa000a0</color>
                <colorMode>normal</colorMode>
                <width>3</width>
            </LineStyle>
            <PolyStyle id="49">
                <color>33a000a0</color>
                <colorMode>normal</colorMode>
                <fill>1</fill>
                <outline>1</outline>
            </PolyStyle>
        </Style>
        <Style id="55">
            <LineStyle id="57">
                <color>ffa000a0</color>
                <colorMode>normal</colorMode>
                <width>3</width>
            </LineStyle>
            <PolyStyle id="56">
                <color>33a000a0</color>
                <colorMode>normal</colorMode>
                <fill>1</fill>
                <outline>1</outline>
            </PolyStyle>
        </Style>
        <Style id="62">
            <LineStyle id="64">
                <color>ffa000a0</color>
                <colorMode>normal</colorMode>
                <width>3</width>
            </LineStyle>
            <PolyStyle id="63">
                <color>33a000a0</color>
                <colorMode>normal</colorMode>
                <fill>1</fill>
                <outline>1</outline>
            </PolyStyle>
        </Style>
        <Style id="69">
            <LineStyle id="71">
                <color>ffa000a0</color>
                <colorMode>normal</colorMode>
                <width>3</width>
            </LineStyle>
            <PolyStyle id="70">
                <color>33a000a0</color>
                <colorMode>normal</colorMode>
                <fill>1</fill>
                <outline>1</outline>
            </PolyStyle>
        </Style>
        <Placemark id="3">
            <name>CA091 (previously Yowlumni Disperser)</name>
            <description>Last Adjusted: 09/28/2026</description>
            <styleUrl>#6</styleUrl>
            <Polygon id="2">
                <outerBoundaryIs>
                    <LinearRing id="4">
                        <coordinates>-118.90601462691643,35.668441941223186,0.0 -118.87387143143349,35.692739888041515,0.0 -118.8829008030332,35.726761251091666,0.0 -118.92409184678688,35.736476666597326,0.0 -118.9562287687547,35.712172013068084,0.0 -118.94718093519063,35.67815865496599,0.0 -118.90601462691643,35.668441941223186,0.0</coordinates>
                    </LinearRing>
                </outerBoundaryIs>
            </Polygon>
        </Placemark>
        <Placemark id="10">
            <name>CA195</name>
            <description>Last Adjusted: 09/28/2026</description>
            <styleUrl>#13</styleUrl>
            <Polygon id="9">
                <outerBoundaryIs>
                    <LinearRing id="11">
                        <coordinates>-120.35382966839803,39.555048436675136,0.0 -120.3210626527138,39.579235960921885,0.0 -120.33082987426111,39.61190127027127,0.0 -120.37338292668703,39.62037117171774,0.0 -120.40614146308873,39.596177786420036,0.0 -120.39635544332414,39.56352036498105,0.0 -120.35382966839803,39.555048436675136,0.0</coordinates>
                    </LinearRing>
                </outerBoundaryIs>
            </Polygon>
        </Placemark>
        <Placemark id="17">
            <name>CA131</name>
            <description>Last Adjusted: 09/28/2026</description>
            <styleUrl>#20</styleUrl>
            <Polygon id="16">
                <outerBoundaryIs>
                    <LinearRing id="18">
                        <coordinates>-120.56990325949889,39.873701646132744,0.0 -120.53712312839824,39.89789334433003,0.0 -120.54697965898904,39.930417212552484,0.0 -120.5896350886423,39.93874147714345,0.0 -120.6224064324331,39.914543994132195,0.0 -120.6125311510899,39.88202803557016,0.0 -120.56990325949889,39.873701646132744,0.0</coordinates>
                    </LinearRing>
                </outerBoundaryIs>
            </Polygon>
        </Placemark>
        <Placemark id="24">
            <name>CA150 (previously Harvey 3)</name>
            <description>Last Adjusted: 09/28/2026</description>
            <styleUrl>#27</styleUrl>
            <Polygon id="23">
                <outerBoundaryIs>
                    <LinearRing id="25">
                        <coordinates>-120.98261975153409,40.56226782677051,0.0 -120.94978867733226,40.58645295205806,0.0 -120.95982493660608,40.61867328450404,0.0 -121.00271097353614,40.62670056900648,0.0 -121.035532649469,40.60250981065009,0.0 -121.02547770443947,40.57029740504004,0.0 -120.98261975153409,40.56226782677051,0.0</coordinates>
                    </LinearRing>
                </outerBoundaryIs>
            </Polygon>
        </Placemark>
        <Placemark id="31">
            <name>CA107 (previously Harvey 1)</name>
            <description>Last Adjusted: 09/28/2026</description>
            <styleUrl>#34</styleUrl>
            <Polygon id="30">
                <outerBoundaryIs>
                    <LinearRing id="32">
                        <coordinates>-120.98261975153409,40.56226782677051,0.0 -120.94978867733226,40.58645295205806,0.0 -120.95982493660608,40.61867328450404,0.0 -121.00271097353614,40.62670056900648,0.0 -121.035532649469,40.60250981065009,0.0 -121.02547770443947,40.57029740504004,0.0 -120.98261975153409,40.56226782677051,0.0</coordinates>
                    </LinearRing>
                </outerBoundaryIs>
            </Polygon>
        </Placemark>
        <Placemark id="38">
            <name>CA124 (previously Whaleback Disperser 2)</name>
            <description>Last Adjusted: 09/28/2026</description>
            <styleUrl>#41</styleUrl>
            <Polygon id="37">
                <outerBoundaryIs>
                    <LinearRing id="39">
                        <coordinates>-121.72274300804155,40.6078048439485,0.0 -121.69021878066773,40.63214005229961,0.0 -121.70045689394574,40.664211033882516,0.0 -121.74323736197354,40.671938616205665,0.0 -121.77575131756862,40.6475979281971,0.0 -121.76549509484194,40.615535141487264,0.0 -121.72274300804155,40.6078048439485,0.0</coordinates>
                    </LinearRing>
                </outerBoundaryIs>
            </Polygon>
        </Placemark>
        <Placemark id="45">
            <name>CA077; pack origin: Whaleback</name>
            <description>Last Adjusted: 09/28/2026</description>
            <styleUrl>#48</styleUrl>
            <Polygon id="44">
                <outerBoundaryIs>
                    <LinearRing id="46">
                        <coordinates>-121.3468025306635,41.20351356769422,0.0 -121.31391504954286,41.227683370579356,0.0 -121.32411503809348,41.25961594912318,0.0 -121.36722116279581,41.26737080255233,0.0 -121.4000986893688,41.24319549899925,0.0 -121.38988006394231,41.21127084682544,0.0 -121.3468025306635,41.20351356769422,0.0</coordinates>
                    </LinearRing>
                </outerBoundaryIs>
            </Polygon>
        </Placemark>
        <Placemark id="52">
            <name>CA127 (previously Whaleback 2)</name>
            <description>Last Adjusted: 09/27/2026</description>
            <styleUrl>#55</styleUrl>
            <Polygon id="51">
                <outerBoundaryIs>
                    <LinearRing id="53">
                        <coordinates>-121.87219981471908,41.446784656909195,0.0 -121.83946227207947,41.471029848276316,0.0 -121.84982813478558,41.50278021830509,0.0 -121.89294985757913,41.510277338835735,0.0 -121.9256767752105,41.48602677779026,0.0 -121.9152926134884,41.45428446990237,0.0 -121.87219981471908,41.446784656909195,0.0</coordinates>
                    </LinearRing>
                </outerBoundaryIs>
            </Polygon>
        </Placemark>
        <Placemark id="59">
            <name>CA147 (previously Whaleback 4)</name>
            <description>Last Adjusted: 09/28/2026</description>
            <styleUrl>#62</styleUrl>
            <Polygon id="58">
                <outerBoundaryIs>
                    <LinearRing id="60">
                        <coordinates>-122.05496442781796,41.5083826519601,0.0 -122.02228785027,41.53265700934091,0.0 -122.03270870500953,41.5643514584977,0.0 -122.075824326536,41.571763441894745,0.0 -122.10849005146366,41.54748375992291,0.0 -122.09805102599655,41.51579742310694,0.0 -122.05496442781796,41.5083826519601,0.0</coordinates>
                    </LinearRing>
                </outerBoundaryIs>
            </Polygon>
        </Placemark>
        <Placemark id="66">
            <name>CA121 (previously Whaleback Disperser 1)</name>
            <description>Last Adjusted: 09/28/2026</description>
            <styleUrl>#69</styleUrl>
            <Polygon id="65">
                <outerBoundaryIs>
                    <LinearRing id="67">
                        <coordinates>-121.84982813478558,41.50278021830509,0.0 -121.81706172024525,41.5270122417673,0.0 -121.82742762104712,41.55874675167808,0.0 -121.87057829349013,41.56624120028104,0.0 -121.90333409702362,41.54200380687857,0.0 -121.89294985757913,41.510277338835735,0.0 -121.84982813478558,41.50278021830509,0.0</coordinates>
                    </LinearRing>
                </outerBoundaryIs>
            </Polygon>
        </Placemark>
    </Document>
</kml>
