<?xml version="1.0" encoding="UTF-8"?>
<kml xmlns="http://www.opengis.net/kml/2.2" xmlns:gx="http://www.google.com/kml/ext/2.2">
    <Document id="1">
        <Style id="6">
            <LineStyle id="8">
                <color>ffa000a0</color>
                <colorMode>normal</colorMode>
                <width>3</width>
            </LineStyle>
            <PolyStyle id="7">
                <color>33a000a0</color>
                <colorMode>normal</colorMode>
                <fill>1</fill>
                <outline>1</outline>
            </PolyStyle>
        </Style>
        <Style id="13">
            <LineStyle id="15">
                <color>ffa000a0</color>
                <colorMode>normal</colorMode>
                <width>3</width>
            </LineStyle>
            <PolyStyle id="14">
                <color>33a000a0</color>
                <colorMode>normal</colorMode>
                <fill>1</fill>
                <outline>1</outline>
            </PolyStyle>
        </Style>
        <Style id="20">
            <LineStyle id="22">
                <color>ffa000a0</color>
                <colorMode>normal</colorMode>
                <width>3</width>
            </LineStyle>
            <PolyStyle id="21">
                <color>33a000a0</color>
                <colorMode>normal</colorMode>
                <fill>1</fill>
                <outline>1</outline>
            </PolyStyle>
        </Style>
        <Style id="27">
            <LineStyle id="29">
                <color>ffa000a0</color>
                <colorMode>normal</colorMode>
                <width>3</width>
            </LineStyle>
            <PolyStyle id="28">
                <color>33a000a0</color>
                <colorMode>normal</colorMode>
                <fill>1</fill>
                <outline>1</outline>
            </PolyStyle>
        </Style>
        <Style id="34">
            <LineStyle id="36">
                <color>ffa000a0</color>
                <colorMode>normal</colorMode>
                <width>3</width>
            </LineStyle>
            <PolyStyle id="35">
                <color>33a000a0</color>
                <colorMode>normal</colorMode>
                <fill>1</fill>
                <outline>1</outline>
            </PolyStyle>
        </Style>
        <Style id="41">
            <LineStyle id="43">
                <color>ffa000a0</color>
                <colorMode>normal</colorMode>
                <width>3</width>
            </LineStyle>
            <PolyStyle id="42">
                <color>33a000a0</color>
                <colorMode>normal</colorMode>
                <fill>1</fill>
                <outline>1</outline>
            </PolyStyle>
        </Style>
        <Style id="48">
            <LineStyle id="50">
                <color>ffa000a0</color>
                <colorMode>normal</colorMode>
                <width>3</width>
            </LineStyle>
            <PolyStyle id="49">
                <color>33a000a0</color>
                <colorMode>normal</colorMode>
                <fill>1</fill>
                <outline>1</outline>
            </PolyStyle>
        </Style>
        <Style id="55">
            <LineStyle id="57">
                <color>ffa000a0</color>
                <colorMode>normal</colorMode>
                <width>3</width>
            </LineStyle>
            <PolyStyle id="56">
                <color>33a000a0</color>
                <colorMode>normal</colorMode>
                <fill>1</fill>
                <outline>1</outline>
            </PolyStyle>
        </Style>
        <Style id="62">
            <LineStyle id="64">
                <color>ffa000a0</color>
                <colorMode>normal</colorMode>
                <width>3</width>
            </LineStyle>
            <PolyStyle id="63">
                <color>33a000a0</color>
                <colorMode>normal</colorMode>
                <fill>1</fill>
                <outline>1</outline>
            </PolyStyle>
        </Style>
        <Style id="69">
            <LineStyle id="71">
                <color>ffa000a0</color>
                <colorMode>normal</colorMode>
                <width>3</width>
            </LineStyle>
            <PolyStyle id="70">
                <color>33a000a0</color>
                <colorMode>normal</colorMode>
                <fill>1</fill>
                <outline>1</outline>
            </PolyStyle>
        </Style>
        <Placemark id="3">
            <name>CA091 (previously Yowlumni Disperser)</name>
            <description>Last Adjusted: 09/24/2026</description>
            <styleUrl>#6</styleUrl>
            <Polygon id="2">
                <outerBoundaryIs>
                    <LinearRing id="4">
                        <coordinates>-118.90601462691643,35.668441941223186,0.0 -118.87387143143349,35.692739888041515,0.0 -118.8829008030332,35.726761251091666,0.0 -118.92409184678688,35.736476666597326,0.0 -118.9562287687547,35.712172013068084,0.0 -118.94718093519063,35.67815865496599,0.0 -118.90601462691643,35.668441941223186,0.0</coordinates>
                    </LinearRing>
                </outerBoundaryIs>
            </Polygon>
        </Placemark>
        <Placemark id="10">
            <name>CA195</name>
            <description>Last Adjusted: 09/24/2026</description>
            <styleUrl>#13</styleUrl>
            <Polygon id="9">
                <outerBoundaryIs>
                    <LinearRing id="11">
                        <coordinates>-120.22623649060219,39.52952401597202,0.0 -120.19342476184852,39.55368733618575,0.0 -120.20315499628641,39.58638278534556,0.0 -120.24571586234323,39.59490707812652,0.0 -120.27851926579541,39.570737871915135,0.0 -120.26877014541387,39.538050263209506,0.0 -120.22623649060219,39.52952401597202,0.0</coordinates>
                    </LinearRing>
                </outerBoundaryIs>
            </Polygon>
        </Placemark>
        <Placemark id="17">
            <name>CA131</name>
            <description>Last Adjusted: 09/24/2026</description>
            <styleUrl>#20</styleUrl>
            <Polygon id="16">
                <outerBoundaryIs>
                    <LinearRing id="18">
                        <coordinates>-120.50104608140899,40.04376625466644,0.0 -120.4681814009048,40.06791995164524,0.0 -120.47803601057927,40.100399492692006,0.0 -120.52077418577802,40.10871749443183,0.0 -120.5536301302952,40.084558019806636,0.0 -120.54375665287543,40.052086325353514,0.0 -120.50104608140899,40.04376625466644,0.0</coordinates>
                    </LinearRing>
                </outerBoundaryIs>
            </Polygon>
        </Placemark>
        <Placemark id="24">
            <name>CA150 (previously Harvey 3)</name>
            <description>Last Adjusted: 09/24/2026</description>
            <styleUrl>#27</styleUrl>
            <Polygon id="23">
                <outerBoundaryIs>
                    <LinearRing id="25">
                        <coordinates>-121.00538570237202,40.505834272714196,0.0 -120.97258308256839,40.53003228889809,0.0 -120.98261975153409,40.56226782677051,0.0 -121.02547770443947,40.57029740504004,0.0 -121.05827090988238,40.54609375439224,0.0 -121.04821559445591,40.51386616410586,0.0 -121.00538570237202,40.505834272714196,0.0</coordinates>
                    </LinearRing>
                </outerBoundaryIs>
            </Polygon>
        </Placemark>
        <Placemark id="31">
            <name>CA107 (previously Harvey 1)</name>
            <description>Last Adjusted: 09/23/2026</description>
            <styleUrl>#34</styleUrl>
            <Polygon id="30">
                <outerBoundaryIs>
                    <LinearRing id="32">
                        <coordinates>-120.91414852360083,40.73139944901113,0.0 -120.88123187362199,40.75554549704614,0.0 -120.891266829873,40.78771992551461,0.0 -120.93423725803395,40.7957404453928,0.0 -120.96714455857825,40.77158876795824,0.0 -120.95709079816504,40.739422204263455,0.0 -120.91414852360083,40.73139944901113,0.0</coordinates>
                    </LinearRing>
                </outerBoundaryIs>
            </Polygon>
        </Placemark>
        <Placemark id="38">
            <name>CA124 (previously Whaleback Disperser 2)</name>
            <description>Last Adjusted: 09/24/2026</description>
            <styleUrl>#41</styleUrl>
            <Polygon id="37">
                <outerBoundaryIs>
                    <LinearRing id="39">
                        <coordinates>-121.60273191553689,40.737148525548236,0.0 -121.57011220094752,40.761440539317555,0.0 -121.58033196970896,40.79348916181908,0.0 -121.62318972529782,40.80123765248339,0.0 -121.65579928059647,40.77694014714649,0.0 -121.64556125756421,40.7448996467274,0.0 -121.60273191553689,40.737148525548236,0.0</coordinates>
                    </LinearRing>
                </outerBoundaryIs>
            </Polygon>
        </Placemark>
        <Placemark id="45">
            <name>CA077; pack origin: Whaleback</name>
            <description>Last Adjusted: 09/23/2026</description>
            <styleUrl>#48</styleUrl>
            <Polygon id="44">
                <outerBoundaryIs>
                    <LinearRing id="46">
                        <coordinates>-121.27081745397129,41.21989939644046,0.0 -121.23789129254162,41.24405038528495,0.0 -121.24807257639205,41.27599085874438,0.0 -121.29119874451507,41.28377245260841,0.0 -121.32411503809348,41.25961594912318,0.0 -121.31391504954286,41.227683370579356,0.0 -121.27081745397129,41.21989939644046,0.0</coordinates>
                    </LinearRing>
                </outerBoundaryIs>
            </Polygon>
        </Placemark>
        <Placemark id="52">
            <name>CA127 (previously Whaleback 2)</name>
            <description>Last Adjusted: 09/23/2026</description>
            <styleUrl>#55</styleUrl>
            <Polygon id="51">
                <outerBoundaryIs>
                    <LinearRing id="53">
                        <coordinates>-122.05496442781796,41.5083826519601,0.0 -122.02228785027,41.53265700934091,0.0 -122.03270870500953,41.5643514584977,0.0 -122.075824326536,41.571763441894745,0.0 -122.10849005146366,41.54748375992291,0.0 -122.09805102599655,41.51579742310694,0.0 -122.05496442781796,41.5083826519601,0.0</coordinates>
                    </LinearRing>
                </outerBoundaryIs>
            </Polygon>
        </Placemark>
        <Placemark id="59">
            <name>CA121 (previously Whaleback Disperser 1)</name>
            <description>Last Adjusted: 09/24/2026</description>
            <styleUrl>#62</styleUrl>
            <Polygon id="58">
                <outerBoundaryIs>
                    <LinearRing id="60">
                        <coordinates>-122.13984414950045,41.64246303081753,0.0 -122.10716044564948,41.666734921576875,0.0 -122.11761817675229,41.69836543683882,0.0 -122.16077778065524,41.7057159536965,0.0 -122.19345050240781,41.68143876798204,0.0 -122.18297462096429,41.64981636431552,0.0 -122.13984414950045,41.64246303081753,0.0</coordinates>
                    </LinearRing>
                </outerBoundaryIs>
            </Polygon>
        </Placemark>
        <Placemark id="66">
            <name>CA147 (previously Whaleback 4)</name>
            <description>Last Adjusted: 09/24/2026</description>
            <styleUrl>#69</styleUrl>
            <Polygon id="65">
                <outerBoundaryIs>
                    <LinearRing id="67">
                        <coordinates>-122.13984414950045,41.64246303081753,0.0 -122.10716044564948,41.666734921576875,0.0 -122.11761817675229,41.69836543683882,0.0 -122.16077778065524,41.7057159536965,0.0 -122.19345050240781,41.68143876798204,0.0 -122.18297462096429,41.64981636431552,0.0 -122.13984414950045,41.64246303081753,0.0</coordinates>
                    </LinearRing>
                </outerBoundaryIs>
            </Polygon>
        </Placemark>
    </Document>
</kml>
