<?xml version="1.0" encoding="UTF-8"?>
<kml xmlns="http://www.opengis.net/kml/2.2" xmlns:gx="http://www.google.com/kml/ext/2.2">
    <Document id="1">
        <Style id="6">
            <LineStyle id="8">
                <color>ffa000a0</color>
                <colorMode>normal</colorMode>
                <width>3</width>
            </LineStyle>
            <PolyStyle id="7">
                <color>33a000a0</color>
                <colorMode>normal</colorMode>
                <fill>1</fill>
                <outline>1</outline>
            </PolyStyle>
        </Style>
        <Style id="13">
            <LineStyle id="15">
                <color>ffa000a0</color>
                <colorMode>normal</colorMode>
                <width>3</width>
            </LineStyle>
            <PolyStyle id="14">
                <color>33a000a0</color>
                <colorMode>normal</colorMode>
                <fill>1</fill>
                <outline>1</outline>
            </PolyStyle>
        </Style>
        <Style id="20">
            <LineStyle id="22">
                <color>ffa000a0</color>
                <colorMode>normal</colorMode>
                <width>3</width>
            </LineStyle>
            <PolyStyle id="21">
                <color>33a000a0</color>
                <colorMode>normal</colorMode>
                <fill>1</fill>
                <outline>1</outline>
            </PolyStyle>
        </Style>
        <Style id="27">
            <LineStyle id="29">
                <color>ffa000a0</color>
                <colorMode>normal</colorMode>
                <width>3</width>
            </LineStyle>
            <PolyStyle id="28">
                <color>33a000a0</color>
                <colorMode>normal</colorMode>
                <fill>1</fill>
                <outline>1</outline>
            </PolyStyle>
        </Style>
        <Style id="34">
            <LineStyle id="36">
                <color>ffa000a0</color>
                <colorMode>normal</colorMode>
                <width>3</width>
            </LineStyle>
            <PolyStyle id="35">
                <color>33a000a0</color>
                <colorMode>normal</colorMode>
                <fill>1</fill>
                <outline>1</outline>
            </PolyStyle>
        </Style>
        <Style id="41">
            <LineStyle id="43">
                <color>ffa000a0</color>
                <colorMode>normal</colorMode>
                <width>3</width>
            </LineStyle>
            <PolyStyle id="42">
                <color>33a000a0</color>
                <colorMode>normal</colorMode>
                <fill>1</fill>
                <outline>1</outline>
            </PolyStyle>
        </Style>
        <Style id="48">
            <LineStyle id="50">
                <color>ffa000a0</color>
                <colorMode>normal</colorMode>
                <width>3</width>
            </LineStyle>
            <PolyStyle id="49">
                <color>33a000a0</color>
                <colorMode>normal</colorMode>
                <fill>1</fill>
                <outline>1</outline>
            </PolyStyle>
        </Style>
        <Style id="55">
            <LineStyle id="57">
                <color>ffa000a0</color>
                <colorMode>normal</colorMode>
                <width>3</width>
            </LineStyle>
            <PolyStyle id="56">
                <color>33a000a0</color>
                <colorMode>normal</colorMode>
                <fill>1</fill>
                <outline>1</outline>
            </PolyStyle>
        </Style>
        <Style id="62">
            <LineStyle id="64">
                <color>ffa000a0</color>
                <colorMode>normal</colorMode>
                <width>3</width>
            </LineStyle>
            <PolyStyle id="63">
                <color>33a000a0</color>
                <colorMode>normal</colorMode>
                <fill>1</fill>
                <outline>1</outline>
            </PolyStyle>
        </Style>
        <Style id="69">
            <LineStyle id="71">
                <color>ffa000a0</color>
                <colorMode>normal</colorMode>
                <width>3</width>
            </LineStyle>
            <PolyStyle id="70">
                <color>33a000a0</color>
                <colorMode>normal</colorMode>
                <fill>1</fill>
                <outline>1</outline>
            </PolyStyle>
        </Style>
        <Placemark id="3">
            <name>CA091 (previously Yowlumni Disperser)</name>
            <description>Last Adjusted: 09/22/2026</description>
            <styleUrl>#6</styleUrl>
            <Polygon id="2">
                <outerBoundaryIs>
                    <LinearRing id="4">
                        <coordinates>-118.97929177784803,35.653844445573306,0.0 -118.94718093519063,35.67815865496599,0.0 -118.9562287687547,35.712172013068084,0.0 -118.9974058669305,35.72186312199392,0.0 -119.02951035567692,35.69754221175339,0.0 -119.02044411488657,35.66353689763309,0.0 -118.97929177784803,35.653844445573306,0.0</coordinates>
                    </LinearRing>
                </outerBoundaryIs>
            </Polygon>
        </Placemark>
        <Placemark id="10">
            <name>CA195</name>
            <description>Last Adjusted: 09/22/2026</description>
            <styleUrl>#13</styleUrl>
            <Polygon id="9">
                <outerBoundaryIs>
                    <LinearRing id="11">
                        <coordinates>-120.232380395621,39.68439560077859,0.0 -120.19952093774789,39.708539712640885,0.0 -120.2092677390832,39.74118383032516,0.0 -120.25189295446238,39.749676029161606,0.0 -120.28474405424218,39.72552605118053,0.0 -120.27497831373769,39.69288974478644,0.0 -120.232380395621,39.68439560077859,0.0</coordinates>
                    </LinearRing>
                </outerBoundaryIs>
            </Polygon>
        </Placemark>
        <Placemark id="17">
            <name>CA131</name>
            <description>Last Adjusted: 09/22/2026</description>
            <styleUrl>#20</styleUrl>
            <Polygon id="16">
                <outerBoundaryIs>
                    <LinearRing id="18">
                        <coordinates>-120.47149784996357,39.946245743476595,0.0 -120.43865270273437,39.97040638232014,0.0 -120.44848975162101,40.00292337983288,0.0 -120.49119081888223,40.01127188785052,0.0 -120.52402728190555,39.987105455055946,0.0 -120.5141713790884,39.95459631245814,0.0 -120.47149784996357,39.946245743476595,0.0</coordinates>
                    </LinearRing>
                </outerBoundaryIs>
            </Polygon>
        </Placemark>
        <Placemark id="24">
            <name>CA107 (previously Harvey 1)</name>
            <description>Last Adjusted: 09/21/2026</description>
            <styleUrl>#27</styleUrl>
            <Polygon id="23">
                <outerBoundaryIs>
                    <LinearRing id="25">
                        <coordinates>-120.98261975153409,40.56226782677051,0.0 -120.94978867733226,40.58645295205806,0.0 -120.95982493660608,40.61867328450404,0.0 -121.00271097353614,40.62670056900648,0.0 -121.035532649469,40.60250981065009,0.0 -121.02547770443947,40.57029740504004,0.0 -120.98261975153409,40.56226782677051,0.0</coordinates>
                    </LinearRing>
                </outerBoundaryIs>
            </Polygon>
        </Placemark>
        <Placemark id="31">
            <name>CA150 (previously Harvey 3)</name>
            <description>Last Adjusted: 09/22/2026</description>
            <styleUrl>#34</styleUrl>
            <Polygon id="30">
                <outerBoundaryIs>
                    <LinearRing id="32">
                        <coordinates>-120.98261975153409,40.56226782677051,0.0 -120.94978867733226,40.58645295205806,0.0 -120.95982493660608,40.61867328450404,0.0 -121.00271097353614,40.62670056900648,0.0 -121.035532649469,40.60250981065009,0.0 -121.02547770443947,40.57029740504004,0.0 -120.98261975153409,40.56226782677051,0.0</coordinates>
                    </LinearRing>
                </outerBoundaryIs>
            </Polygon>
        </Placemark>
        <Placemark id="38">
            <name>CA124 (previously Whaleback Disperser 2)</name>
            <description>Last Adjusted: 09/22/2026</description>
            <styleUrl>#41</styleUrl>
            <Polygon id="37">
                <outerBoundaryIs>
                    <LinearRing id="39">
                        <coordinates>-121.67814233403551,40.72058950654726,0.0 -121.64556125756421,40.7448996467274,0.0 -121.65579928059647,40.77694014714649,0.0 -121.69863658514248,40.784662357933335,0.0 -121.73120741807593,40.76034674024436,0.0 -121.72095120797877,40.7283143932676,0.0 -121.67814233403551,40.72058950654726,0.0</coordinates>
                    </LinearRing>
                </outerBoundaryIs>
            </Polygon>
        </Placemark>
        <Placemark id="45">
            <name>CA077; pack origin: Whaleback</name>
            <description>Last Adjusted: 09/22/2026</description>
            <styleUrl>#48</styleUrl>
            <Polygon id="44">
                <outerBoundaryIs>
                    <LinearRing id="46">
                        <coordinates>-121.32411503809348,41.25961594912318,0.0 -121.29119874451507,41.28377245260841,0.0 -121.30139849656962,41.31568930582326,0.0 -121.34453323709009,41.323441753719884,0.0 -121.37743959155782,41.299279749781135,0.0 -121.36722116279581,41.26737080255233,0.0 -121.32411503809348,41.25961594912318,0.0</coordinates>
                    </LinearRing>
                </outerBoundaryIs>
            </Polygon>
        </Placemark>
        <Placemark id="52">
            <name>CA127 (previously Whaleback 2)</name>
            <description>Last Adjusted: 09/21/2026</description>
            <styleUrl>#55</styleUrl>
            <Polygon id="51">
                <outerBoundaryIs>
                    <LinearRing id="53">
                        <coordinates>-122.04594823829049,41.35716703189416,0.0 -122.01331849230341,41.38146205678994,0.0 -122.023720755348,41.41321204665038,0.0 -122.06677090448204,41.420658872458844,0.0 -122.09938984213494,41.39635850832255,0.0 -122.08896945741093,41.36461666156705,0.0 -122.04594823829049,41.35716703189416,0.0</coordinates>
                    </LinearRing>
                </outerBoundaryIs>
            </Polygon>
        </Placemark>
        <Placemark id="59">
            <name>CA121 (previously Whaleback Disperser 1)</name>
            <description>Last Adjusted: 09/22/2026</description>
            <styleUrl>#62</styleUrl>
            <Polygon id="58">
                <outerBoundaryIs>
                    <LinearRing id="60">
                        <coordinates>-122.04594823829049,41.35716703189416,0.0 -122.01331849230341,41.38146205678994,0.0 -122.023720755348,41.41321204665038,0.0 -122.06677090448204,41.420658872458844,0.0 -122.09938984213494,41.39635850832255,0.0 -122.08896945741093,41.36461666156705,0.0 -122.04594823829049,41.35716703189416,0.0</coordinates>
                    </LinearRing>
                </outerBoundaryIs>
            </Polygon>
        </Placemark>
        <Placemark id="66">
            <name>CA147 (previously Whaleback 4)</name>
            <description>Last Adjusted: 09/21/2026</description>
            <styleUrl>#69</styleUrl>
            <Polygon id="65">
                <outerBoundaryIs>
                    <LinearRing id="67">
                        <coordinates>-122.13984414950045,41.64246303081753,0.0 -122.10716044564948,41.666734921576875,0.0 -122.11761817675229,41.69836543683882,0.0 -122.16077778065524,41.7057159536965,0.0 -122.19345050240781,41.68143876798204,0.0 -122.18297462096429,41.64981636431552,0.0 -122.13984414950045,41.64246303081753,0.0</coordinates>
                    </LinearRing>
                </outerBoundaryIs>
            </Polygon>
        </Placemark>
    </Document>
</kml>
