<?xml version="1.0" encoding="UTF-8"?>
<kml xmlns="http://www.opengis.net/kml/2.2" xmlns:gx="http://www.google.com/kml/ext/2.2">
    <Document id="1">
        <Style id="6">
            <LineStyle id="8">
                <color>ffa000a0</color>
                <colorMode>normal</colorMode>
                <width>3</width>
            </LineStyle>
            <PolyStyle id="7">
                <color>33a000a0</color>
                <colorMode>normal</colorMode>
                <fill>1</fill>
                <outline>1</outline>
            </PolyStyle>
        </Style>
        <Style id="13">
            <LineStyle id="15">
                <color>ffa000a0</color>
                <colorMode>normal</colorMode>
                <width>3</width>
            </LineStyle>
            <PolyStyle id="14">
                <color>33a000a0</color>
                <colorMode>normal</colorMode>
                <fill>1</fill>
                <outline>1</outline>
            </PolyStyle>
        </Style>
        <Style id="20">
            <LineStyle id="22">
                <color>ffa000a0</color>
                <colorMode>normal</colorMode>
                <width>3</width>
            </LineStyle>
            <PolyStyle id="21">
                <color>33a000a0</color>
                <colorMode>normal</colorMode>
                <fill>1</fill>
                <outline>1</outline>
            </PolyStyle>
        </Style>
        <Style id="27">
            <LineStyle id="29">
                <color>ffa000a0</color>
                <colorMode>normal</colorMode>
                <width>3</width>
            </LineStyle>
            <PolyStyle id="28">
                <color>33a000a0</color>
                <colorMode>normal</colorMode>
                <fill>1</fill>
                <outline>1</outline>
            </PolyStyle>
        </Style>
        <Style id="34">
            <LineStyle id="36">
                <color>ffa000a0</color>
                <colorMode>normal</colorMode>
                <width>3</width>
            </LineStyle>
            <PolyStyle id="35">
                <color>33a000a0</color>
                <colorMode>normal</colorMode>
                <fill>1</fill>
                <outline>1</outline>
            </PolyStyle>
        </Style>
        <Style id="41">
            <LineStyle id="43">
                <color>ffa000a0</color>
                <colorMode>normal</colorMode>
                <width>3</width>
            </LineStyle>
            <PolyStyle id="42">
                <color>33a000a0</color>
                <colorMode>normal</colorMode>
                <fill>1</fill>
                <outline>1</outline>
            </PolyStyle>
        </Style>
        <Style id="48">
            <LineStyle id="50">
                <color>ffa000a0</color>
                <colorMode>normal</colorMode>
                <width>3</width>
            </LineStyle>
            <PolyStyle id="49">
                <color>33a000a0</color>
                <colorMode>normal</colorMode>
                <fill>1</fill>
                <outline>1</outline>
            </PolyStyle>
        </Style>
        <Style id="55">
            <LineStyle id="57">
                <color>ffa000a0</color>
                <colorMode>normal</colorMode>
                <width>3</width>
            </LineStyle>
            <PolyStyle id="56">
                <color>33a000a0</color>
                <colorMode>normal</colorMode>
                <fill>1</fill>
                <outline>1</outline>
            </PolyStyle>
        </Style>
        <Style id="62">
            <LineStyle id="64">
                <color>ffa000a0</color>
                <colorMode>normal</colorMode>
                <width>3</width>
            </LineStyle>
            <PolyStyle id="63">
                <color>33a000a0</color>
                <colorMode>normal</colorMode>
                <fill>1</fill>
                <outline>1</outline>
            </PolyStyle>
        </Style>
        <Style id="69">
            <LineStyle id="71">
                <color>ffa000a0</color>
                <colorMode>normal</colorMode>
                <width>3</width>
            </LineStyle>
            <PolyStyle id="70">
                <color>33a000a0</color>
                <colorMode>normal</colorMode>
                <fill>1</fill>
                <outline>1</outline>
            </PolyStyle>
        </Style>
        <Placemark id="3">
            <name>CA091 (previously Yowlumni Disperser)</name>
            <description>Last Adjusted: 09/26/2026</description>
            <styleUrl>#6</styleUrl>
            <Polygon id="2">
                <outerBoundaryIs>
                    <LinearRing id="4">
                        <coordinates>-118.90601462691643,35.668441941223186,0.0 -118.87387143143349,35.692739888041515,0.0 -118.8829008030332,35.726761251091666,0.0 -118.92409184678688,35.736476666597326,0.0 -118.9562287687547,35.712172013068084,0.0 -118.94718093519063,35.67815865496599,0.0 -118.90601462691643,35.668441941223186,0.0</coordinates>
                    </LinearRing>
                </outerBoundaryIs>
            </Polygon>
        </Placemark>
        <Placemark id="10">
            <name>CA195</name>
            <description>Last Adjusted: 09/25/2026</description>
            <styleUrl>#13</styleUrl>
            <Polygon id="9">
                <outerBoundaryIs>
                    <LinearRing id="11">
                        <coordinates>-120.22623649060219,39.52952401597202,0.0 -120.19342476184852,39.55368733618575,0.0 -120.20315499628641,39.58638278534556,0.0 -120.24571586234323,39.59490707812652,0.0 -120.27851926579541,39.570737871915135,0.0 -120.26877014541387,39.538050263209506,0.0 -120.22623649060219,39.52952401597202,0.0</coordinates>
                    </LinearRing>
                </outerBoundaryIs>
            </Polygon>
        </Placemark>
        <Placemark id="17">
            <name>CA131</name>
            <description>Last Adjusted: 09/26/2026</description>
            <styleUrl>#20</styleUrl>
            <Polygon id="16">
                <outerBoundaryIs>
                    <LinearRing id="18">
                        <coordinates>-120.56990325949889,39.873701646132744,0.0 -120.53712312839824,39.89789334433003,0.0 -120.54697965898904,39.930417212552484,0.0 -120.5896350886423,39.93874147714345,0.0 -120.6224064324331,39.914543994132195,0.0 -120.6125311510899,39.88202803557016,0.0 -120.56990325949889,39.873701646132744,0.0</coordinates>
                    </LinearRing>
                </outerBoundaryIs>
            </Polygon>
        </Placemark>
        <Placemark id="24">
            <name>CA150 (previously Harvey 3)</name>
            <description>Last Adjusted: 09/26/2026</description>
            <styleUrl>#27</styleUrl>
            <Polygon id="23">
                <outerBoundaryIs>
                    <LinearRing id="25">
                        <coordinates>-120.92973403418522,40.52197395708072,0.0 -120.89689363167403,40.54615343507611,0.0 -120.9069115881942,40.57839688798981,0.0 -120.94978867733226,40.58645295205806,0.0 -120.98261975153409,40.56226782677051,0.0 -120.97258308256839,40.53003228889809,0.0 -120.92973403418522,40.52197395708072,0.0</coordinates>
                    </LinearRing>
                </outerBoundaryIs>
            </Polygon>
        </Placemark>
        <Placemark id="31">
            <name>CA107 (previously Harvey 1)</name>
            <description>Last Adjusted: 09/26/2026</description>
            <styleUrl>#34</styleUrl>
            <Polygon id="30">
                <outerBoundaryIs>
                    <LinearRing id="32">
                        <coordinates>-120.92973403418522,40.52197395708072,0.0 -120.89689363167403,40.54615343507611,0.0 -120.9069115881942,40.57839688798981,0.0 -120.94978867733226,40.58645295205806,0.0 -120.98261975153409,40.56226782677051,0.0 -120.97258308256839,40.53003228889809,0.0 -120.92973403418522,40.52197395708072,0.0</coordinates>
                    </LinearRing>
                </outerBoundaryIs>
            </Polygon>
        </Placemark>
        <Placemark id="38">
            <name>CA124 (previously Whaleback Disperser 2)</name>
            <description>Last Adjusted: 09/26/2026</description>
            <styleUrl>#41</styleUrl>
            <Polygon id="37">
                <outerBoundaryIs>
                    <LinearRing id="39">
                        <coordinates>-121.67814233403551,40.72058950654726,0.0 -121.64556125756421,40.7448996467274,0.0 -121.65579928059647,40.77694014714649,0.0 -121.69863658514248,40.784662357933335,0.0 -121.73120741807593,40.76034674024436,0.0 -121.72095120797877,40.7283143932676,0.0 -121.67814233403551,40.72058950654726,0.0</coordinates>
                    </LinearRing>
                </outerBoundaryIs>
            </Polygon>
        </Placemark>
        <Placemark id="45">
            <name>CA077; pack origin: Whaleback</name>
            <description>Last Adjusted: 09/26/2026</description>
            <styleUrl>#48</styleUrl>
            <Polygon id="44">
                <outerBoundaryIs>
                    <LinearRing id="46">
                        <coordinates>-121.32411503809348,41.25961594912318,0.0 -121.29119874451507,41.28377245260841,0.0 -121.30139849656962,41.31568930582326,0.0 -121.34453323709009,41.323441753719884,0.0 -121.37743959155782,41.299279749781135,0.0 -121.36722116279581,41.26737080255233,0.0 -121.32411503809348,41.25961594912318,0.0</coordinates>
                    </LinearRing>
                </outerBoundaryIs>
            </Polygon>
        </Placemark>
        <Placemark id="52">
            <name>CA121 (previously Whaleback Disperser 1)</name>
            <description>Last Adjusted: 09/26/2026</description>
            <styleUrl>#55</styleUrl>
            <Polygon id="51">
                <outerBoundaryIs>
                    <LinearRing id="53">
                        <coordinates>-122.07719145726749,41.45238496507058,0.0 -122.04454371834582,41.476672358605775,0.0 -122.05496442781796,41.5083826519601,0.0 -122.09805102599655,41.51579742310694,0.0 -122.1306878988995,41.49150470527933,0.0 -122.12024905812713,41.45980254454673,0.0 -122.07719145726749,41.45238496507058,0.0</coordinates>
                    </LinearRing>
                </outerBoundaryIs>
            </Polygon>
        </Placemark>
        <Placemark id="59">
            <name>CA127 (previously Whaleback 2)</name>
            <description>Last Adjusted: 09/25/2026</description>
            <styleUrl>#62</styleUrl>
            <Polygon id="58">
                <outerBoundaryIs>
                    <LinearRing id="60">
                        <coordinates>-122.11761817675229,41.69836543683882,0.0 -122.0849055324091,41.72262416171737,0.0 -122.09536344213994,41.754238695064316,0.0 -122.13855220478646,41.7615864160727,0.0 -122.17125388032291,41.73732239562056,0.0 -122.16077778065524,41.7057159536965,0.0 -122.11761817675229,41.69836543683882,0.0</coordinates>
                    </LinearRing>
                </outerBoundaryIs>
            </Polygon>
        </Placemark>
        <Placemark id="66">
            <name>CA147 (previously Whaleback 4)</name>
            <description>Last Adjusted: 09/26/2026</description>
            <styleUrl>#69</styleUrl>
            <Polygon id="65">
                <outerBoundaryIs>
                    <LinearRing id="67">
                        <coordinates>-122.11761817675229,41.69836543683882,0.0 -122.0849055324091,41.72262416171737,0.0 -122.09536344213994,41.754238695064316,0.0 -122.13855220478646,41.7615864160727,0.0 -122.17125388032291,41.73732239562056,0.0 -122.16077778065524,41.7057159536965,0.0 -122.11761817675229,41.69836543683882,0.0</coordinates>
                    </LinearRing>
                </outerBoundaryIs>
            </Polygon>
        </Placemark>
    </Document>
</kml>
