<?xml version="1.0" encoding="UTF-8"?>
<kml xmlns="http://www.opengis.net/kml/2.2" xmlns:gx="http://www.google.com/kml/ext/2.2">
    <Document id="1">
        <Style id="6">
            <LineStyle id="8">
                <color>ffa000a0</color>
                <colorMode>normal</colorMode>
                <width>3</width>
            </LineStyle>
            <PolyStyle id="7">
                <color>33a000a0</color>
                <colorMode>normal</colorMode>
                <fill>1</fill>
                <outline>1</outline>
            </PolyStyle>
        </Style>
        <Style id="13">
            <LineStyle id="15">
                <color>ffa000a0</color>
                <colorMode>normal</colorMode>
                <width>3</width>
            </LineStyle>
            <PolyStyle id="14">
                <color>33a000a0</color>
                <colorMode>normal</colorMode>
                <fill>1</fill>
                <outline>1</outline>
            </PolyStyle>
        </Style>
        <Style id="20">
            <LineStyle id="22">
                <color>ffa000a0</color>
                <colorMode>normal</colorMode>
                <width>3</width>
            </LineStyle>
            <PolyStyle id="21">
                <color>33a000a0</color>
                <colorMode>normal</colorMode>
                <fill>1</fill>
                <outline>1</outline>
            </PolyStyle>
        </Style>
        <Style id="27">
            <LineStyle id="29">
                <color>ffa000a0</color>
                <colorMode>normal</colorMode>
                <width>3</width>
            </LineStyle>
            <PolyStyle id="28">
                <color>33a000a0</color>
                <colorMode>normal</colorMode>
                <fill>1</fill>
                <outline>1</outline>
            </PolyStyle>
        </Style>
        <Style id="34">
            <LineStyle id="36">
                <color>ffa000a0</color>
                <colorMode>normal</colorMode>
                <width>3</width>
            </LineStyle>
            <PolyStyle id="35">
                <color>33a000a0</color>
                <colorMode>normal</colorMode>
                <fill>1</fill>
                <outline>1</outline>
            </PolyStyle>
        </Style>
        <Style id="41">
            <LineStyle id="43">
                <color>ffa000a0</color>
                <colorMode>normal</colorMode>
                <width>3</width>
            </LineStyle>
            <PolyStyle id="42">
                <color>33a000a0</color>
                <colorMode>normal</colorMode>
                <fill>1</fill>
                <outline>1</outline>
            </PolyStyle>
        </Style>
        <Style id="48">
            <LineStyle id="50">
                <color>ffa000a0</color>
                <colorMode>normal</colorMode>
                <width>3</width>
            </LineStyle>
            <PolyStyle id="49">
                <color>33a000a0</color>
                <colorMode>normal</colorMode>
                <fill>1</fill>
                <outline>1</outline>
            </PolyStyle>
        </Style>
        <Style id="55">
            <LineStyle id="57">
                <color>ffa000a0</color>
                <colorMode>normal</colorMode>
                <width>3</width>
            </LineStyle>
            <PolyStyle id="56">
                <color>33a000a0</color>
                <colorMode>normal</colorMode>
                <fill>1</fill>
                <outline>1</outline>
            </PolyStyle>
        </Style>
        <Style id="62">
            <LineStyle id="64">
                <color>ffa000a0</color>
                <colorMode>normal</colorMode>
                <width>3</width>
            </LineStyle>
            <PolyStyle id="63">
                <color>33a000a0</color>
                <colorMode>normal</colorMode>
                <fill>1</fill>
                <outline>1</outline>
            </PolyStyle>
        </Style>
        <Style id="69">
            <LineStyle id="71">
                <color>ffa000a0</color>
                <colorMode>normal</colorMode>
                <width>3</width>
            </LineStyle>
            <PolyStyle id="70">
                <color>33a000a0</color>
                <colorMode>normal</colorMode>
                <fill>1</fill>
                <outline>1</outline>
            </PolyStyle>
        </Style>
        <Placemark id="3">
            <name>CA091 (previously Yowlumni Disperser)</name>
            <description>Last Adjusted: 09/23/2026</description>
            <styleUrl>#6</styleUrl>
            <Polygon id="2">
                <outerBoundaryIs>
                    <LinearRing id="4">
                        <coordinates>-118.97929177784803,35.653844445573306,0.0 -118.94718093519063,35.67815865496599,0.0 -118.9562287687547,35.712172013068084,0.0 -118.9974058669305,35.72186312199392,0.0 -119.02951035567692,35.69754221175339,0.0 -119.02044411488657,35.66353689763309,0.0 -118.97929177784803,35.653844445573306,0.0</coordinates>
                    </LinearRing>
                </outerBoundaryIs>
            </Polygon>
        </Placemark>
        <Placemark id="10">
            <name>CA195</name>
            <description>Last Adjusted: 09/23/2026</description>
            <styleUrl>#13</styleUrl>
            <Polygon id="9">
                <outerBoundaryIs>
                    <LinearRing id="11">
                        <coordinates>-120.1800447102958,39.643214578412206,0.0 -120.14717696280823,39.66735281034795,0.0 -120.1569055862587,39.700019274343894,0.0 -120.19952093774789,39.708539712640885,0.0 -120.232380395621,39.68439560077859,0.0 -120.22263280858232,39.651736934861326,0.0 -120.1800447102958,39.643214578412206,0.0</coordinates>
                    </LinearRing>
                </outerBoundaryIs>
            </Polygon>
        </Placemark>
        <Placemark id="17">
            <name>CA131</name>
            <description>Last Adjusted: 09/23/2026</description>
            <styleUrl>#20</styleUrl>
            <Polygon id="16">
                <outerBoundaryIs>
                    <LinearRing id="18">
                        <coordinates>-120.47149784996357,39.946245743476595,0.0 -120.43865270273437,39.97040638232014,0.0 -120.44848975162101,40.00292337983288,0.0 -120.49119081888223,40.01127188785052,0.0 -120.52402728190555,39.987105455055946,0.0 -120.5141713790884,39.95459631245814,0.0 -120.47149784996357,39.946245743476595,0.0</coordinates>
                    </LinearRing>
                </outerBoundaryIs>
            </Polygon>
        </Placemark>
        <Placemark id="24">
            <name>CA107 (previously Harvey 1)</name>
            <description>Last Adjusted: 09/22/2026</description>
            <styleUrl>#27</styleUrl>
            <Polygon id="23">
                <outerBoundaryIs>
                    <LinearRing id="25">
                        <coordinates>-120.88406021964632,40.63479163571565,0.0 -120.85116283481342,40.658945132198625,0.0 -120.86117988081062,40.691158084750846,0.0 -120.90411312063884,40.69920967143967,0.0 -120.93700120988935,40.67505053034441,0.0 -120.92696537260161,40.64284545138953,0.0 -120.88406021964632,40.63479163571565,0.0</coordinates>
                    </LinearRing>
                </outerBoundaryIs>
            </Polygon>
        </Placemark>
        <Placemark id="31">
            <name>CA150 (previously Harvey 3)</name>
            <description>Last Adjusted: 09/23/2026</description>
            <styleUrl>#34</styleUrl>
            <Polygon id="30">
                <outerBoundaryIs>
                    <LinearRing id="32">
                        <coordinates>-120.9899695216093,40.71525743263157,0.0 -120.95709079816504,40.739422204263455,0.0 -120.96714455857825,40.77158876795824,0.0 -121.01009579799577,40.77958266704703,0.0 -121.04296508535309,40.75541227899912,0.0 -121.03289258716305,40.72325361247273,0.0 -120.9899695216093,40.71525743263157,0.0</coordinates>
                    </LinearRing>
                </outerBoundaryIs>
            </Polygon>
        </Placemark>
        <Placemark id="38">
            <name>CA124 (previously Whaleback Disperser 2)</name>
            <description>Last Adjusted: 09/23/2026</description>
            <styleUrl>#41</styleUrl>
            <Polygon id="37">
                <outerBoundaryIs>
                    <LinearRing id="39">
                        <coordinates>-121.62510330708221,40.6807799704055,0.0 -121.59251205693091,40.70508461800308,0.0 -121.60273191553689,40.737148525548236,0.0 -121.64556125756421,40.7448996467274,0.0 -121.67814233403551,40.72058950654726,0.0 -121.66790426010166,40.68853374177223,0.0 -121.62510330708221,40.6807799704055,0.0</coordinates>
                    </LinearRing>
                </outerBoundaryIs>
            </Polygon>
        </Placemark>
        <Placemark id="45">
            <name>CA077; pack origin: Whaleback</name>
            <description>Last Adjusted: 09/23/2026</description>
            <styleUrl>#48</styleUrl>
            <Polygon id="44">
                <outerBoundaryIs>
                    <LinearRing id="46">
                        <coordinates>-121.27081745397129,41.21989939644046,0.0 -121.23789129254162,41.24405038528495,0.0 -121.24807257639205,41.27599085874438,0.0 -121.29119874451507,41.28377245260841,0.0 -121.32411503809348,41.25961594912318,0.0 -121.31391504954286,41.227683370579356,0.0 -121.27081745397129,41.21989939644046,0.0</coordinates>
                    </LinearRing>
                </outerBoundaryIs>
            </Polygon>
        </Placemark>
        <Placemark id="52">
            <name>CA121 (previously Whaleback Disperser 1)</name>
            <description>Last Adjusted: 09/23/2026</description>
            <styleUrl>#55</styleUrl>
            <Polygon id="51">
                <outerBoundaryIs>
                    <LinearRing id="53">
                        <coordinates>-121.9168568683924,41.334706892717335,0.0 -121.8841769580562,41.3589782230313,0.0 -121.89454270967559,41.390760178084264,0.0 -121.93760661004522,41.39826270402014,0.0 -121.97027586764037,41.3739860042862,0.0 -121.95989189598615,41.342212152021226,0.0 -121.9168568683924,41.334706892717335,0.0</coordinates>
                    </LinearRing>
                </outerBoundaryIs>
            </Polygon>
        </Placemark>
        <Placemark id="59">
            <name>CA147 (previously Whaleback 4)</name>
            <description>Last Adjusted: 09/23/2026</description>
            <styleUrl>#62</styleUrl>
            <Polygon id="58">
                <outerBoundaryIs>
                    <LinearRing id="60">
                        <coordinates>-121.9168568683924,41.334706892717335,0.0 -121.8841769580562,41.3589782230313,0.0 -121.89454270967559,41.390760178084264,0.0 -121.93760661004522,41.39826270402014,0.0 -121.97027586764037,41.3739860042862,0.0 -121.95989189598615,41.342212152021226,0.0 -121.9168568683924,41.334706892717335,0.0</coordinates>
                    </LinearRing>
                </outerBoundaryIs>
            </Polygon>
        </Placemark>
        <Placemark id="66">
            <name>CA127 (previously Whaleback 2)</name>
            <description>Last Adjusted: 09/22/2026</description>
            <styleUrl>#69</styleUrl>
            <Polygon id="65">
                <outerBoundaryIs>
                    <LinearRing id="67">
                        <coordinates>-121.9168568683924,41.334706892717335,0.0 -121.8841769580562,41.3589782230313,0.0 -121.89454270967559,41.390760178084264,0.0 -121.93760661004522,41.39826270402014,0.0 -121.97027586764037,41.3739860042862,0.0 -121.95989189598615,41.342212152021226,0.0 -121.9168568683924,41.334706892717335,0.0</coordinates>
                    </LinearRing>
                </outerBoundaryIs>
            </Polygon>
        </Placemark>
    </Document>
</kml>
