<?xml version="1.0" encoding="UTF-8"?>
<kml xmlns="http://www.opengis.net/kml/2.2" xmlns:gx="http://www.google.com/kml/ext/2.2">
    <Document id="1">
        <Style id="6">
            <LineStyle id="8">
                <color>ffa000a0</color>
                <colorMode>normal</colorMode>
                <width>3</width>
            </LineStyle>
            <PolyStyle id="7">
                <color>33a000a0</color>
                <colorMode>normal</colorMode>
                <fill>1</fill>
                <outline>1</outline>
            </PolyStyle>
        </Style>
        <Style id="13">
            <LineStyle id="15">
                <color>ffa000a0</color>
                <colorMode>normal</colorMode>
                <width>3</width>
            </LineStyle>
            <PolyStyle id="14">
                <color>33a000a0</color>
                <colorMode>normal</colorMode>
                <fill>1</fill>
                <outline>1</outline>
            </PolyStyle>
        </Style>
        <Style id="20">
            <LineStyle id="22">
                <color>ffa000a0</color>
                <colorMode>normal</colorMode>
                <width>3</width>
            </LineStyle>
            <PolyStyle id="21">
                <color>33a000a0</color>
                <colorMode>normal</colorMode>
                <fill>1</fill>
                <outline>1</outline>
            </PolyStyle>
        </Style>
        <Style id="27">
            <LineStyle id="29">
                <color>ffa000a0</color>
                <colorMode>normal</colorMode>
                <width>3</width>
            </LineStyle>
            <PolyStyle id="28">
                <color>33a000a0</color>
                <colorMode>normal</colorMode>
                <fill>1</fill>
                <outline>1</outline>
            </PolyStyle>
        </Style>
        <Style id="34">
            <LineStyle id="36">
                <color>ffa000a0</color>
                <colorMode>normal</colorMode>
                <width>3</width>
            </LineStyle>
            <PolyStyle id="35">
                <color>33a000a0</color>
                <colorMode>normal</colorMode>
                <fill>1</fill>
                <outline>1</outline>
            </PolyStyle>
        </Style>
        <Style id="41">
            <LineStyle id="43">
                <color>ffa000a0</color>
                <colorMode>normal</colorMode>
                <width>3</width>
            </LineStyle>
            <PolyStyle id="42">
                <color>33a000a0</color>
                <colorMode>normal</colorMode>
                <fill>1</fill>
                <outline>1</outline>
            </PolyStyle>
        </Style>
        <Style id="48">
            <LineStyle id="50">
                <color>ffa000a0</color>
                <colorMode>normal</colorMode>
                <width>3</width>
            </LineStyle>
            <PolyStyle id="49">
                <color>33a000a0</color>
                <colorMode>normal</colorMode>
                <fill>1</fill>
                <outline>1</outline>
            </PolyStyle>
        </Style>
        <Style id="55">
            <LineStyle id="57">
                <color>ffa000a0</color>
                <colorMode>normal</colorMode>
                <width>3</width>
            </LineStyle>
            <PolyStyle id="56">
                <color>33a000a0</color>
                <colorMode>normal</colorMode>
                <fill>1</fill>
                <outline>1</outline>
            </PolyStyle>
        </Style>
        <Style id="62">
            <LineStyle id="64">
                <color>ffa000a0</color>
                <colorMode>normal</colorMode>
                <width>3</width>
            </LineStyle>
            <PolyStyle id="63">
                <color>33a000a0</color>
                <colorMode>normal</colorMode>
                <fill>1</fill>
                <outline>1</outline>
            </PolyStyle>
        </Style>
        <Style id="69">
            <LineStyle id="71">
                <color>ffa000a0</color>
                <colorMode>normal</colorMode>
                <width>3</width>
            </LineStyle>
            <PolyStyle id="70">
                <color>33a000a0</color>
                <colorMode>normal</colorMode>
                <fill>1</fill>
                <outline>1</outline>
            </PolyStyle>
        </Style>
        <Style id="76">
            <LineStyle id="78">
                <color>ffa000a0</color>
                <colorMode>normal</colorMode>
                <width>3</width>
            </LineStyle>
            <PolyStyle id="77">
                <color>33a000a0</color>
                <colorMode>normal</colorMode>
                <fill>1</fill>
                <outline>1</outline>
            </PolyStyle>
        </Style>
        <Placemark id="3">
            <name>CA091 (previously Yowlumni Disperser)</name>
            <description>Last Adjusted: 10/04/2026</description>
            <styleUrl>#6</styleUrl>
            <Polygon id="2">
                <outerBoundaryIs>
                    <LinearRing id="4">
                        <coordinates>-118.66264060130055,35.770284513152205,0.0 -118.63037465836325,35.79452340834378,0.0 -118.63934683693023,35.828557553107096,0.0 -118.680603634407,35.838344942252895,0.0 -118.71286356609028,35.81409933229584,0.0 -118.70387272620569,35.780073052264896,0.0 -118.66264060130055,35.770284513152205,0.0</coordinates>
                    </LinearRing>
                </outerBoundaryIs>
            </Polygon>
        </Placemark>
        <Placemark id="10">
            <name>CA195</name>
            <description>Last Adjusted: 10/04/2026</description>
            <styleUrl>#13</styleUrl>
            <Polygon id="9">
                <outerBoundaryIs>
                    <LinearRing id="11">
                        <coordinates>-120.33082987426111,39.61190127027127,0.0 -120.29803486434173,39.63607634852333,0.0 -120.30780135167763,39.668727181994,0.0 -120.35038170286225,39.677195074764825,0.0 -120.38316825095414,39.65301413847316,0.0 -120.37338292668703,39.62037117171774,0.0 -120.33082987426111,39.61190127027127,0.0</coordinates>
                    </LinearRing>
                </outerBoundaryIs>
            </Polygon>
        </Placemark>
        <Placemark id="17">
            <name>CA131</name>
            <description>Last Adjusted: 10/04/2026</description>
            <styleUrl>#20</styleUrl>
            <Polygon id="16">
                <outerBoundaryIs>
                    <LinearRing id="18">
                        <coordinates>-120.36652219811027,39.86437343739569,0.0 -120.33365988916886,39.88852244651597,0.0 -120.34346051492378,39.92108457956072,0.0 -120.38614237079459,39.929489878477995,0.0 -120.41899613330907,39.905335047540675,0.0 -120.40917660351782,39.87278074378839,0.0 -120.36652219811027,39.86437343739569,0.0</coordinates>
                    </LinearRing>
                </outerBoundaryIs>
            </Polygon>
        </Placemark>
        <Placemark id="24">
            <name>CA150 (previously Harvey 3)</name>
            <description>Last Adjusted: 10/04/2026</description>
            <styleUrl>#27</styleUrl>
            <Polygon id="23">
                <outerBoundaryIs>
                    <LinearRing id="25">
                        <coordinates>-120.98261975153409,40.56226782677051,0.0 -120.94978867733226,40.58645295205806,0.0 -120.95982493660608,40.61867328450404,0.0 -121.00271097353614,40.62670056900648,0.0 -121.035532649469,40.60250981065009,0.0 -121.02547770443947,40.57029740504004,0.0 -120.98261975153409,40.56226782677051,0.0</coordinates>
                    </LinearRing>
                </outerBoundaryIs>
            </Polygon>
        </Placemark>
        <Placemark id="31">
            <name>CA107 (previously Harvey 1)</name>
            <description>Last Adjusted: 10/04/2026</description>
            <styleUrl>#34</styleUrl>
            <Polygon id="30">
                <outerBoundaryIs>
                    <LinearRing id="32">
                        <coordinates>-120.98261975153409,40.56226782677051,0.0 -120.94978867733226,40.58645295205806,0.0 -120.95982493660608,40.61867328450404,0.0 -121.00271097353614,40.62670056900648,0.0 -121.035532649469,40.60250981065009,0.0 -121.02547770443947,40.57029740504004,0.0 -120.98261975153409,40.56226782677051,0.0</coordinates>
                    </LinearRing>
                </outerBoundaryIs>
            </Polygon>
        </Placemark>
        <Placemark id="38">
            <name>CA124 (previously Whaleback Disperser 2)</name>
            <description>Last Adjusted: 10/04/2026</description>
            <styleUrl>#41</styleUrl>
            <Polygon id="37">
                <outerBoundaryIs>
                    <LinearRing id="39">
                        <coordinates>-121.60273191553689,40.737148525548236,0.0 -121.57011220094752,40.761440539317555,0.0 -121.58033196970896,40.79348916181908,0.0 -121.62318972529782,40.80123765248339,0.0 -121.65579928059647,40.77694014714649,0.0 -121.64556125756421,40.7448996467274,0.0 -121.60273191553689,40.737148525548236,0.0</coordinates>
                    </LinearRing>
                </outerBoundaryIs>
            </Polygon>
        </Placemark>
        <Placemark id="45">
            <name>CA077; pack origin: Whaleback</name>
            <description>Last Adjusted: 10/04/2026</description>
            <styleUrl>#48</styleUrl>
            <Polygon id="44">
                <outerBoundaryIs>
                    <LinearRing id="46">
                        <coordinates>-121.3468025306635,41.20351356769422,0.0 -121.31391504954286,41.227683370579356,0.0 -121.32411503809348,41.25961594912318,0.0 -121.36722116279581,41.26737080255233,0.0 -121.4000986893688,41.24319549899925,0.0 -121.38988006394231,41.21127084682544,0.0 -121.3468025306635,41.20351356769422,0.0</coordinates>
                    </LinearRing>
                </outerBoundaryIs>
            </Polygon>
        </Placemark>
        <Placemark id="52">
            <name>CA121 (previously Whaleback Disperser 1)</name>
            <description>Last Adjusted: 10/04/2026</description>
            <styleUrl>#55</styleUrl>
            <Polygon id="51">
                <outerBoundaryIs>
                    <LinearRing id="53">
                        <coordinates>-122.05496442781796,41.5083826519601,0.0 -122.02228785027,41.53265700934091,0.0 -122.03270870500953,41.5643514584977,0.0 -122.075824326536,41.571763441894745,0.0 -122.10849005146366,41.54748375992291,0.0 -122.09805102599655,41.51579742310694,0.0 -122.05496442781796,41.5083826519601,0.0</coordinates>
                    </LinearRing>
                </outerBoundaryIs>
            </Polygon>
        </Placemark>
        <Placemark id="59">
            <name>CA146</name>
            <description>Last Adjusted: 10/04/2026</description>
            <styleUrl>#62</styleUrl>
            <Polygon id="58">
                <outerBoundaryIs>
                    <LinearRing id="60">
                        <coordinates>-122.05496442781796,41.5083826519601,0.0 -122.02228785027,41.53265700934091,0.0 -122.03270870500953,41.5643514584977,0.0 -122.075824326536,41.571763441894745,0.0 -122.10849005146366,41.54748375992291,0.0 -122.09805102599655,41.51579742310694,0.0 -122.05496442781796,41.5083826519601,0.0</coordinates>
                    </LinearRing>
                </outerBoundaryIs>
            </Polygon>
        </Placemark>
        <Placemark id="66">
            <name>CA127 (previously Whaleback 2)</name>
            <description>Last Adjusted: 10/03/2026</description>
            <styleUrl>#69</styleUrl>
            <Polygon id="65">
                <outerBoundaryIs>
                    <LinearRing id="67">
                        <coordinates>-122.01042423997399,41.620291274482405,0.0 -121.97768987291462,41.644539363369596,0.0 -121.9881109837516,41.67620199000655,0.0 -122.03128473006872,41.683608459862036,0.0 -122.06400827157204,41.659355045520044,0.0 -122.05356891087933,41.6277004907641,0.0 -122.01042423997399,41.620291274482405,0.0</coordinates>
                    </LinearRing>
                </outerBoundaryIs>
            </Polygon>
        </Placemark>
        <Placemark id="73">
            <name>CA147 (previously Whaleback 4)</name>
            <description>Last Adjusted: 10/04/2026</description>
            <styleUrl>#76</styleUrl>
            <Polygon id="72">
                <outerBoundaryIs>
                    <LinearRing id="74">
                        <coordinates>-122.13984414950045,41.64246303081753,0.0 -122.10716044564948,41.666734921576875,0.0 -122.11761817675229,41.69836543683882,0.0 -122.16077778065524,41.7057159536965,0.0 -122.19345050240781,41.68143876798204,0.0 -122.18297462096429,41.64981636431552,0.0 -122.13984414950045,41.64246303081753,0.0</coordinates>
                    </LinearRing>
                </outerBoundaryIs>
            </Polygon>
        </Placemark>
    </Document>
</kml>
