<?xml version="1.0" encoding="UTF-8"?>
<kml xmlns="http://www.opengis.net/kml/2.2" xmlns:gx="http://www.google.com/kml/ext/2.2">
    <Document id="1">
        <Style id="6">
            <LineStyle id="8">
                <color>ffa000a0</color>
                <colorMode>normal</colorMode>
                <width>3</width>
            </LineStyle>
            <PolyStyle id="7">
                <color>33a000a0</color>
                <colorMode>normal</colorMode>
                <fill>1</fill>
                <outline>1</outline>
            </PolyStyle>
        </Style>
        <Style id="13">
            <LineStyle id="15">
                <color>ffa000a0</color>
                <colorMode>normal</colorMode>
                <width>3</width>
            </LineStyle>
            <PolyStyle id="14">
                <color>33a000a0</color>
                <colorMode>normal</colorMode>
                <fill>1</fill>
                <outline>1</outline>
            </PolyStyle>
        </Style>
        <Style id="20">
            <LineStyle id="22">
                <color>ffa000a0</color>
                <colorMode>normal</colorMode>
                <width>3</width>
            </LineStyle>
            <PolyStyle id="21">
                <color>33a000a0</color>
                <colorMode>normal</colorMode>
                <fill>1</fill>
                <outline>1</outline>
            </PolyStyle>
        </Style>
        <Style id="27">
            <LineStyle id="29">
                <color>ffa000a0</color>
                <colorMode>normal</colorMode>
                <width>3</width>
            </LineStyle>
            <PolyStyle id="28">
                <color>33a000a0</color>
                <colorMode>normal</colorMode>
                <fill>1</fill>
                <outline>1</outline>
            </PolyStyle>
        </Style>
        <Style id="34">
            <LineStyle id="36">
                <color>ffa000a0</color>
                <colorMode>normal</colorMode>
                <width>3</width>
            </LineStyle>
            <PolyStyle id="35">
                <color>33a000a0</color>
                <colorMode>normal</colorMode>
                <fill>1</fill>
                <outline>1</outline>
            </PolyStyle>
        </Style>
        <Style id="41">
            <LineStyle id="43">
                <color>ffa000a0</color>
                <colorMode>normal</colorMode>
                <width>3</width>
            </LineStyle>
            <PolyStyle id="42">
                <color>33a000a0</color>
                <colorMode>normal</colorMode>
                <fill>1</fill>
                <outline>1</outline>
            </PolyStyle>
        </Style>
        <Style id="48">
            <LineStyle id="50">
                <color>ffa000a0</color>
                <colorMode>normal</colorMode>
                <width>3</width>
            </LineStyle>
            <PolyStyle id="49">
                <color>33a000a0</color>
                <colorMode>normal</colorMode>
                <fill>1</fill>
                <outline>1</outline>
            </PolyStyle>
        </Style>
        <Style id="55">
            <LineStyle id="57">
                <color>ffa000a0</color>
                <colorMode>normal</colorMode>
                <width>3</width>
            </LineStyle>
            <PolyStyle id="56">
                <color>33a000a0</color>
                <colorMode>normal</colorMode>
                <fill>1</fill>
                <outline>1</outline>
            </PolyStyle>
        </Style>
        <Style id="62">
            <LineStyle id="64">
                <color>ffa000a0</color>
                <colorMode>normal</colorMode>
                <width>3</width>
            </LineStyle>
            <PolyStyle id="63">
                <color>33a000a0</color>
                <colorMode>normal</colorMode>
                <fill>1</fill>
                <outline>1</outline>
            </PolyStyle>
        </Style>
        <Style id="69">
            <LineStyle id="71">
                <color>ffa000a0</color>
                <colorMode>normal</colorMode>
                <width>3</width>
            </LineStyle>
            <PolyStyle id="70">
                <color>33a000a0</color>
                <colorMode>normal</colorMode>
                <fill>1</fill>
                <outline>1</outline>
            </PolyStyle>
        </Style>
        <Style id="76">
            <LineStyle id="78">
                <color>ffa000a0</color>
                <colorMode>normal</colorMode>
                <width>3</width>
            </LineStyle>
            <PolyStyle id="77">
                <color>33a000a0</color>
                <colorMode>normal</colorMode>
                <fill>1</fill>
                <outline>1</outline>
            </PolyStyle>
        </Style>
        <Placemark id="3">
            <name>CA091 (previously Yowlumni Disperser)</name>
            <description>Last Adjusted: 10/02/2026</description>
            <styleUrl>#6</styleUrl>
            <Polygon id="2">
                <outerBoundaryIs>
                    <LinearRing id="4">
                        <coordinates>-118.8095266549087,35.74130981842447,0.0 -118.77732507912998,35.765581738836346,0.0 -118.78633452581339,35.79960011480015,0.0 -118.8275641151631,35.80933863130975,0.0 -118.85975951743528,35.78506000729928,0.0 -118.85073151856407,35.751049574637264,0.0 -118.8095266549087,35.74130981842447,0.0</coordinates>
                    </LinearRing>
                </outerBoundaryIs>
            </Polygon>
        </Placemark>
        <Placemark id="10">
            <name>CA195</name>
            <description>Last Adjusted: 10/02/2026</description>
            <styleUrl>#13</styleUrl>
            <Polygon id="9">
                <outerBoundaryIs>
                    <LinearRing id="11">
                        <coordinates>-120.35382966839803,39.555048436675136,0.0 -120.3210626527138,39.579235960921885,0.0 -120.33082987426111,39.61190127027127,0.0 -120.37338292668703,39.62037117171774,0.0 -120.40614146308873,39.596177786420036,0.0 -120.39635544332414,39.56352036498105,0.0 -120.35382966839803,39.555048436675136,0.0</coordinates>
                    </LinearRing>
                </outerBoundaryIs>
            </Polygon>
        </Placemark>
        <Placemark id="17">
            <name>CA131</name>
            <description>Last Adjusted: 10/02/2026</description>
            <styleUrl>#20</styleUrl>
            <Polygon id="16">
                <outerBoundaryIs>
                    <LinearRing id="18">
                        <coordinates>-120.41899613330907,39.905335047540675,0.0 -120.38614237079459,39.929489878477995,0.0 -120.39596120739155,39.96202946480565,0.0 -120.43865270273437,39.97040638232014,0.0 -120.47149784996357,39.946245743476595,0.0 -120.46166013431178,39.913713999299105,0.0 -120.41899613330907,39.905335047540675,0.0</coordinates>
                    </LinearRing>
                </outerBoundaryIs>
            </Polygon>
        </Placemark>
        <Placemark id="24">
            <name>CA107 (previously Harvey 1)</name>
            <description>Last Adjusted: 10/02/2026</description>
            <styleUrl>#27</styleUrl>
            <Polygon id="23">
                <outerBoundaryIs>
                    <LinearRing id="25">
                        <coordinates>-121.02073554426077,40.29600272188261,0.0 -120.98800868296652,40.320233350873124,0.0 -120.99802831286678,40.352537224668914,0.0 -121.04079337742333,40.36060247531385,0.0 -121.07351084606888,40.33636619264216,0.0 -121.06347266037484,40.304070317146156,0.0 -121.02073554426077,40.29600272188261,0.0</coordinates>
                    </LinearRing>
                </outerBoundaryIs>
            </Polygon>
        </Placemark>
        <Placemark id="31">
            <name>CA150 (previously Harvey 3)</name>
            <description>Last Adjusted: 10/02/2026</description>
            <styleUrl>#34</styleUrl>
            <Polygon id="30">
                <outerBoundaryIs>
                    <LinearRing id="32">
                        <coordinates>-120.89969668762957,40.425159877172504,0.0 -120.86687544853139,40.44934658158245,0.0 -120.8768755665305,40.481628265976006,0.0 -120.91971564092971,40.48971532620858,0.0 -120.95252760526633,40.4655229587855,0.0 -120.94250878756571,40.433249198332526,0.0 -120.89969668762957,40.425159877172504,0.0</coordinates>
                    </LinearRing>
                </outerBoundaryIs>
            </Polygon>
        </Placemark>
        <Placemark id="38">
            <name>CA124 (previously Whaleback Disperser 2)</name>
            <description>Last Adjusted: 10/02/2026</description>
            <styleUrl>#41</styleUrl>
            <Polygon id="37">
                <outerBoundaryIs>
                    <LinearRing id="39">
                        <coordinates>-121.62510330708221,40.6807799704055,0.0 -121.59251205693091,40.70508461800308,0.0 -121.60273191553689,40.737148525548236,0.0 -121.64556125756421,40.7448996467274,0.0 -121.67814233403551,40.72058950654726,0.0 -121.66790426010166,40.68853374177223,0.0 -121.62510330708221,40.6807799704055,0.0</coordinates>
                    </LinearRing>
                </outerBoundaryIs>
            </Polygon>
        </Placemark>
        <Placemark id="45">
            <name>CA077; pack origin: Whaleback</name>
            <description>Last Adjusted: 10/02/2026</description>
            <styleUrl>#48</styleUrl>
            <Polygon id="44">
                <outerBoundaryIs>
                    <LinearRing id="46">
                        <coordinates>-121.27865285742055,41.37173352602799,0.0 -121.24567882942549,41.395863232799435,0.0 -121.25587807188687,41.42774849826679,0.0 -121.2990701172129,41.43549619582149,0.0 -121.3320342372513,41.41136098876328,0.0 -121.3218162381502,41.3794835886153,0.0 -121.27865285742055,41.37173352602799,0.0</coordinates>
                    </LinearRing>
                </outerBoundaryIs>
            </Polygon>
        </Placemark>
        <Placemark id="52">
            <name>CA127 (previously Whaleback 2)</name>
            <description>Last Adjusted: 10/01/2026</description>
            <styleUrl>#55</styleUrl>
            <Polygon id="51">
                <outerBoundaryIs>
                    <LinearRing id="53">
                        <coordinates>-122.215618426651,41.62552607838735,0.0 -122.18297462096429,41.64981636431552,0.0 -122.19345050240781,41.68143876798204,0.0 -122.23658828882769,41.6887627482537,0.0 -122.26922102781093,41.66446718304918,0.0 -122.25872706569378,41.63285292077555,0.0 -122.215618426651,41.62552607838735,0.0</coordinates>
                    </LinearRing>
                </outerBoundaryIs>
            </Polygon>
        </Placemark>
        <Placemark id="59">
            <name>CA146</name>
            <description>Last Adjusted: 10/02/2026</description>
            <styleUrl>#62</styleUrl>
            <Polygon id="58">
                <outerBoundaryIs>
                    <LinearRing id="60">
                        <coordinates>-122.13984414950045,41.64246303081753,0.0 -122.10716044564948,41.666734921576875,0.0 -122.11761817675229,41.69836543683882,0.0 -122.16077778065524,41.7057159536965,0.0 -122.19345050240781,41.68143876798204,0.0 -122.18297462096429,41.64981636431552,0.0 -122.13984414950045,41.64246303081753,0.0</coordinates>
                    </LinearRing>
                </outerBoundaryIs>
            </Polygon>
        </Placemark>
        <Placemark id="66">
            <name>CA121 (previously Whaleback Disperser 1)</name>
            <description>Last Adjusted: 10/02/2026</description>
            <styleUrl>#69</styleUrl>
            <Polygon id="65">
                <outerBoundaryIs>
                    <LinearRing id="67">
                        <coordinates>-122.09536344213994,41.754238695064316,0.0 -122.06262181962808,41.77848418904405,0.0 -122.07307989652587,41.810082696338114,0.0 -122.116297844223,41.8174276423427,0.0 -122.14902851130893,41.793176852081814,0.0 -122.13855220478646,41.7615864160727,0.0 -122.09536344213994,41.754238695064316,0.0</coordinates>
                    </LinearRing>
                </outerBoundaryIs>
            </Polygon>
        </Placemark>
        <Placemark id="73">
            <name>CA147 (previously Whaleback 4)</name>
            <description>Last Adjusted: 10/02/2026</description>
            <styleUrl>#76</styleUrl>
            <Polygon id="72">
                <outerBoundaryIs>
                    <LinearRing id="74">
                        <coordinates>-122.09536344213994,41.754238695064316,0.0 -122.06262181962808,41.77848418904405,0.0 -122.07307989652587,41.810082696338114,0.0 -122.116297844223,41.8174276423427,0.0 -122.14902851130893,41.793176852081814,0.0 -122.13855220478646,41.7615864160727,0.0 -122.09536344213994,41.754238695064316,0.0</coordinates>
                    </LinearRing>
                </outerBoundaryIs>
            </Polygon>
        </Placemark>
    </Document>
</kml>
