<?xml version="1.0" encoding="UTF-8"?>
<kml xmlns="http://www.opengis.net/kml/2.2" xmlns:gx="http://www.google.com/kml/ext/2.2">
    <Document id="1">
        <Style id="6">
            <LineStyle id="8">
                <color>ffa000a0</color>
                <colorMode>normal</colorMode>
                <width>3</width>
            </LineStyle>
            <PolyStyle id="7">
                <color>33a000a0</color>
                <colorMode>normal</colorMode>
                <fill>1</fill>
                <outline>1</outline>
            </PolyStyle>
        </Style>
        <Style id="13">
            <LineStyle id="15">
                <color>ffa000a0</color>
                <colorMode>normal</colorMode>
                <width>3</width>
            </LineStyle>
            <PolyStyle id="14">
                <color>33a000a0</color>
                <colorMode>normal</colorMode>
                <fill>1</fill>
                <outline>1</outline>
            </PolyStyle>
        </Style>
        <Style id="20">
            <LineStyle id="22">
                <color>ffa000a0</color>
                <colorMode>normal</colorMode>
                <width>3</width>
            </LineStyle>
            <PolyStyle id="21">
                <color>33a000a0</color>
                <colorMode>normal</colorMode>
                <fill>1</fill>
                <outline>1</outline>
            </PolyStyle>
        </Style>
        <Style id="27">
            <LineStyle id="29">
                <color>ffa000a0</color>
                <colorMode>normal</colorMode>
                <width>3</width>
            </LineStyle>
            <PolyStyle id="28">
                <color>33a000a0</color>
                <colorMode>normal</colorMode>
                <fill>1</fill>
                <outline>1</outline>
            </PolyStyle>
        </Style>
        <Style id="34">
            <LineStyle id="36">
                <color>ffa000a0</color>
                <colorMode>normal</colorMode>
                <width>3</width>
            </LineStyle>
            <PolyStyle id="35">
                <color>33a000a0</color>
                <colorMode>normal</colorMode>
                <fill>1</fill>
                <outline>1</outline>
            </PolyStyle>
        </Style>
        <Style id="41">
            <LineStyle id="43">
                <color>ffa000a0</color>
                <colorMode>normal</colorMode>
                <width>3</width>
            </LineStyle>
            <PolyStyle id="42">
                <color>33a000a0</color>
                <colorMode>normal</colorMode>
                <fill>1</fill>
                <outline>1</outline>
            </PolyStyle>
        </Style>
        <Style id="48">
            <LineStyle id="50">
                <color>ffa000a0</color>
                <colorMode>normal</colorMode>
                <width>3</width>
            </LineStyle>
            <PolyStyle id="49">
                <color>33a000a0</color>
                <colorMode>normal</colorMode>
                <fill>1</fill>
                <outline>1</outline>
            </PolyStyle>
        </Style>
        <Style id="55">
            <LineStyle id="57">
                <color>ffa000a0</color>
                <colorMode>normal</colorMode>
                <width>3</width>
            </LineStyle>
            <PolyStyle id="56">
                <color>33a000a0</color>
                <colorMode>normal</colorMode>
                <fill>1</fill>
                <outline>1</outline>
            </PolyStyle>
        </Style>
        <Style id="62">
            <LineStyle id="64">
                <color>ffa000a0</color>
                <colorMode>normal</colorMode>
                <width>3</width>
            </LineStyle>
            <PolyStyle id="63">
                <color>33a000a0</color>
                <colorMode>normal</colorMode>
                <fill>1</fill>
                <outline>1</outline>
            </PolyStyle>
        </Style>
        <Style id="69">
            <LineStyle id="71">
                <color>ffa000a0</color>
                <colorMode>normal</colorMode>
                <width>3</width>
            </LineStyle>
            <PolyStyle id="70">
                <color>33a000a0</color>
                <colorMode>normal</colorMode>
                <fill>1</fill>
                <outline>1</outline>
            </PolyStyle>
        </Style>
        <Style id="76">
            <LineStyle id="78">
                <color>ffa000a0</color>
                <colorMode>normal</colorMode>
                <width>3</width>
            </LineStyle>
            <PolyStyle id="77">
                <color>33a000a0</color>
                <colorMode>normal</colorMode>
                <fill>1</fill>
                <outline>1</outline>
            </PolyStyle>
        </Style>
        <Placemark id="3">
            <name>CA091 (previously Yowlumni Disperser)</name>
            <description>Last Adjusted: 10/07/2026</description>
            <styleUrl>#6</styleUrl>
            <Polygon id="2">
                <outerBoundaryIs>
                    <LinearRing id="4">
                        <coordinates>-118.59267635419496,35.94504060824659,0.0 -118.56033189002511,35.9692495701328,0.0 -118.56929955281906,36.003250346631155,0.0 -118.61063046324843,36.01303436831596,0.0 -118.64296897601527,35.98881871784515,0.0 -118.63398254445408,35.9548257386222,0.0 -118.59267635419496,35.94504060824659,0.0</coordinates>
                    </LinearRing>
                </outerBoundaryIs>
            </Polygon>
        </Placemark>
        <Placemark id="10">
            <name>CA195</name>
            <description>Last Adjusted: 10/07/2026</description>
            <styleUrl>#13</styleUrl>
            <Polygon id="9">
                <outerBoundaryIs>
                    <LinearRing id="11">
                        <coordinates>-120.33082987426111,39.61190127027127,0.0 -120.29803486434173,39.63607634852333,0.0 -120.30780135167763,39.668727181994,0.0 -120.35038170286225,39.677195074764825,0.0 -120.38316825095414,39.65301413847316,0.0 -120.37338292668703,39.62037117171774,0.0 -120.33082987426111,39.61190127027127,0.0</coordinates>
                    </LinearRing>
                </outerBoundaryIs>
            </Polygon>
        </Placemark>
        <Placemark id="17">
            <name>CA131</name>
            <description>Last Adjusted: 10/06/2026</description>
            <styleUrl>#20</styleUrl>
            <Polygon id="16">
                <outerBoundaryIs>
                    <LinearRing id="18">
                        <coordinates>-120.41899613330907,39.905335047540675,0.0 -120.38614237079459,39.929489878477995,0.0 -120.39596120739155,39.96202946480565,0.0 -120.43865270273437,39.97040638232014,0.0 -120.47149784996357,39.946245743476595,0.0 -120.46166013431178,39.913713999299105,0.0 -120.41899613330907,39.905335047540675,0.0</coordinates>
                    </LinearRing>
                </outerBoundaryIs>
            </Polygon>
        </Placemark>
        <Placemark id="24">
            <name>CA107 (previously Harvey 1)</name>
            <description>Last Adjusted: 10/07/2026</description>
            <styleUrl>#27</styleUrl>
            <Polygon id="23">
                <outerBoundaryIs>
                    <LinearRing id="25">
                        <coordinates>-121.0281228367343,40.44937273819452,0.0 -120.99534863596341,40.47358357765205,0.0 -121.00538570237202,40.505834272714196,0.0 -121.04821559445591,40.51386616410586,0.0 -121.08098036486687,40.489649688703466,0.0 -121.07092469120576,40.45740696200837,0.0 -121.0281228367343,40.44937273819452,0.0</coordinates>
                    </LinearRing>
                </outerBoundaryIs>
            </Polygon>
        </Placemark>
        <Placemark id="31">
            <name>CA150 (previously Harvey 3)</name>
            <description>Last Adjusted: 10/06/2026</description>
            <styleUrl>#34</styleUrl>
            <Polygon id="30">
                <outerBoundaryIs>
                    <LinearRing id="32">
                        <coordinates>-120.95252760526633,40.4655229587855,0.0 -120.91971564092971,40.48971532620858,0.0 -120.92973403418522,40.52197395708072,0.0 -120.97258308256839,40.53003228889809,0.0 -121.00538570237202,40.505834272714196,0.0 -120.99534863596341,40.47358357765205,0.0 -120.95252760526633,40.4655229587855,0.0</coordinates>
                    </LinearRing>
                </outerBoundaryIs>
            </Polygon>
        </Placemark>
        <Placemark id="38">
            <name>CA124 (previously Whaleback Disperser 2)</name>
            <description>Last Adjusted: 10/06/2026</description>
            <styleUrl>#41</styleUrl>
            <Polygon id="37">
                <outerBoundaryIs>
                    <LinearRing id="39">
                        <coordinates>-121.75349358412029,40.70398620683839,0.0 -121.72095120797877,40.7283143932676,0.0 -121.73120741807593,40.76034674024436,0.0 -121.77402414211375,40.768042720055696,0.0 -121.80655619078432,40.74370907027595,0.0 -121.79628186087555,40.711684908001246,0.0 -121.75349358412029,40.70398620683839,0.0</coordinates>
                    </LinearRing>
                </outerBoundaryIs>
            </Polygon>
        </Placemark>
        <Placemark id="45">
            <name>CA077; pack origin: Whaleback</name>
            <description>Last Adjusted: 10/07/2026</description>
            <styleUrl>#48</styleUrl>
            <Polygon id="44">
                <outerBoundaryIs>
                    <LinearRing id="46">
                        <coordinates>-121.27081745397129,41.21989939644046,0.0 -121.23789129254162,41.24405038528495,0.0 -121.24807257639205,41.27599085874438,0.0 -121.29119874451507,41.28377245260841,0.0 -121.32411503809348,41.25961594912318,0.0 -121.31391504954286,41.227683370579356,0.0 -121.27081745397129,41.21989939644046,0.0</coordinates>
                    </LinearRing>
                </outerBoundaryIs>
            </Polygon>
        </Placemark>
        <Placemark id="52">
            <name>CA146</name>
            <description>Last Adjusted: 10/07/2026</description>
            <styleUrl>#55</styleUrl>
            <Polygon id="51">
                <outerBoundaryIs>
                    <LinearRing id="53">
                        <coordinates>-122.13984414950045,41.64246303081753,0.0 -122.10716044564948,41.666734921576875,0.0 -122.11761817675229,41.69836543683882,0.0 -122.16077778065524,41.7057159536965,0.0 -122.19345050240781,41.68143876798204,0.0 -122.18297462096429,41.64981636431552,0.0 -122.13984414950045,41.64246303081753,0.0</coordinates>
                    </LinearRing>
                </outerBoundaryIs>
            </Polygon>
        </Placemark>
        <Placemark id="59">
            <name>CA147 (previously Whaleback 4)</name>
            <description>Last Adjusted: 10/07/2026</description>
            <styleUrl>#62</styleUrl>
            <Polygon id="58">
                <outerBoundaryIs>
                    <LinearRing id="60">
                        <coordinates>-122.13984414950045,41.64246303081753,0.0 -122.10716044564948,41.666734921576875,0.0 -122.11761817675229,41.69836543683882,0.0 -122.16077778065524,41.7057159536965,0.0 -122.19345050240781,41.68143876798204,0.0 -122.18297462096429,41.64981636431552,0.0 -122.13984414950045,41.64246303081753,0.0</coordinates>
                    </LinearRing>
                </outerBoundaryIs>
            </Polygon>
        </Placemark>
        <Placemark id="66">
            <name>CA121 (previously Whaleback Disperser 1)</name>
            <description>Last Adjusted: 10/07/2026</description>
            <styleUrl>#69</styleUrl>
            <Polygon id="65">
                <outerBoundaryIs>
                    <LinearRing id="67">
                        <coordinates>-122.13984414950045,41.64246303081753,0.0 -122.10716044564948,41.666734921576875,0.0 -122.11761817675229,41.69836543683882,0.0 -122.16077778065524,41.7057159536965,0.0 -122.19345050240781,41.68143876798204,0.0 -122.18297462096429,41.64981636431552,0.0 -122.13984414950045,41.64246303081753,0.0</coordinates>
                    </LinearRing>
                </outerBoundaryIs>
            </Polygon>
        </Placemark>
        <Placemark id="73">
            <name>CA127 (previously Whaleback 2)</name>
            <description>Last Adjusted: 10/06/2026</description>
            <styleUrl>#76</styleUrl>
            <Polygon id="72">
                <outerBoundaryIs>
                    <LinearRing id="74">
                        <coordinates>-121.7911874287437,41.82145096991436,0.0 -121.75828663502739,41.84562154691522,0.0 -121.76867109559775,41.87725203967815,0.0 -121.81197487718042,41.884704008294,0.0 -121.8448650590798,41.860528073139804,0.0 -121.83446208984014,41.82890553159541,0.0 -121.7911874287437,41.82145096991436,0.0</coordinates>
                    </LinearRing>
                </outerBoundaryIs>
            </Polygon>
        </Placemark>
    </Document>
</kml>
