<?xml version="1.0" encoding="UTF-8"?>
<kml xmlns="http://www.opengis.net/kml/2.2" xmlns:gx="http://www.google.com/kml/ext/2.2">
    <Document id="1">
        <Style id="6">
            <LineStyle id="8">
                <color>ffa000a0</color>
                <colorMode>normal</colorMode>
                <width>3</width>
            </LineStyle>
            <PolyStyle id="7">
                <color>33a000a0</color>
                <colorMode>normal</colorMode>
                <fill>1</fill>
                <outline>1</outline>
            </PolyStyle>
        </Style>
        <Style id="13">
            <LineStyle id="15">
                <color>ffa000a0</color>
                <colorMode>normal</colorMode>
                <width>3</width>
            </LineStyle>
            <PolyStyle id="14">
                <color>33a000a0</color>
                <colorMode>normal</colorMode>
                <fill>1</fill>
                <outline>1</outline>
            </PolyStyle>
        </Style>
        <Style id="20">
            <LineStyle id="22">
                <color>ffa000a0</color>
                <colorMode>normal</colorMode>
                <width>3</width>
            </LineStyle>
            <PolyStyle id="21">
                <color>33a000a0</color>
                <colorMode>normal</colorMode>
                <fill>1</fill>
                <outline>1</outline>
            </PolyStyle>
        </Style>
        <Style id="27">
            <LineStyle id="29">
                <color>ffa000a0</color>
                <colorMode>normal</colorMode>
                <width>3</width>
            </LineStyle>
            <PolyStyle id="28">
                <color>33a000a0</color>
                <colorMode>normal</colorMode>
                <fill>1</fill>
                <outline>1</outline>
            </PolyStyle>
        </Style>
        <Style id="34">
            <LineStyle id="36">
                <color>ffa000a0</color>
                <colorMode>normal</colorMode>
                <width>3</width>
            </LineStyle>
            <PolyStyle id="35">
                <color>33a000a0</color>
                <colorMode>normal</colorMode>
                <fill>1</fill>
                <outline>1</outline>
            </PolyStyle>
        </Style>
        <Style id="41">
            <LineStyle id="43">
                <color>ffa000a0</color>
                <colorMode>normal</colorMode>
                <width>3</width>
            </LineStyle>
            <PolyStyle id="42">
                <color>33a000a0</color>
                <colorMode>normal</colorMode>
                <fill>1</fill>
                <outline>1</outline>
            </PolyStyle>
        </Style>
        <Style id="48">
            <LineStyle id="50">
                <color>ffa000a0</color>
                <colorMode>normal</colorMode>
                <width>3</width>
            </LineStyle>
            <PolyStyle id="49">
                <color>33a000a0</color>
                <colorMode>normal</colorMode>
                <fill>1</fill>
                <outline>1</outline>
            </PolyStyle>
        </Style>
        <Style id="55">
            <LineStyle id="57">
                <color>ffa000a0</color>
                <colorMode>normal</colorMode>
                <width>3</width>
            </LineStyle>
            <PolyStyle id="56">
                <color>33a000a0</color>
                <colorMode>normal</colorMode>
                <fill>1</fill>
                <outline>1</outline>
            </PolyStyle>
        </Style>
        <Style id="62">
            <LineStyle id="64">
                <color>ffa000a0</color>
                <colorMode>normal</colorMode>
                <width>3</width>
            </LineStyle>
            <PolyStyle id="63">
                <color>33a000a0</color>
                <colorMode>normal</colorMode>
                <fill>1</fill>
                <outline>1</outline>
            </PolyStyle>
        </Style>
        <Style id="69">
            <LineStyle id="71">
                <color>ffa000a0</color>
                <colorMode>normal</colorMode>
                <width>3</width>
            </LineStyle>
            <PolyStyle id="70">
                <color>33a000a0</color>
                <colorMode>normal</colorMode>
                <fill>1</fill>
                <outline>1</outline>
            </PolyStyle>
        </Style>
        <Style id="76">
            <LineStyle id="78">
                <color>ffa000a0</color>
                <colorMode>normal</colorMode>
                <width>3</width>
            </LineStyle>
            <PolyStyle id="77">
                <color>33a000a0</color>
                <colorMode>normal</colorMode>
                <fill>1</fill>
                <outline>1</outline>
            </PolyStyle>
        </Style>
        <Placemark id="3">
            <name>CA091 (previously Yowlumni Disperser)</name>
            <description>Last Adjusted: 10/02/2026</description>
            <styleUrl>#6</styleUrl>
            <Polygon id="2">
                <outerBoundaryIs>
                    <LinearRing id="4">
                        <coordinates>-118.8095266549087,35.74130981842447,0.0 -118.77732507912998,35.765581738836346,0.0 -118.78633452581339,35.79960011480015,0.0 -118.8275641151631,35.80933863130975,0.0 -118.85975951743528,35.78506000729928,0.0 -118.85073151856407,35.751049574637264,0.0 -118.8095266549087,35.74130981842447,0.0</coordinates>
                    </LinearRing>
                </outerBoundaryIs>
            </Polygon>
        </Placemark>
        <Placemark id="10">
            <name>CA195</name>
            <description>Last Adjusted: 10/02/2026</description>
            <styleUrl>#13</styleUrl>
            <Polygon id="9">
                <outerBoundaryIs>
                    <LinearRing id="11">
                        <coordinates>-120.33082987426111,39.61190127027127,0.0 -120.29803486434173,39.63607634852333,0.0 -120.30780135167763,39.668727181994,0.0 -120.35038170286225,39.677195074764825,0.0 -120.38316825095414,39.65301413847316,0.0 -120.37338292668703,39.62037117171774,0.0 -120.33082987426111,39.61190127027127,0.0</coordinates>
                    </LinearRing>
                </outerBoundaryIs>
            </Polygon>
        </Placemark>
        <Placemark id="17">
            <name>CA131</name>
            <description>Last Adjusted: 10/03/2026</description>
            <styleUrl>#20</styleUrl>
            <Polygon id="16">
                <outerBoundaryIs>
                    <LinearRing id="18">
                        <coordinates>-120.36652219811027,39.86437343739569,0.0 -120.33365988916886,39.88852244651597,0.0 -120.34346051492378,39.92108457956072,0.0 -120.38614237079459,39.929489878477995,0.0 -120.41899613330907,39.905335047540675,0.0 -120.40917660351782,39.87278074378839,0.0 -120.36652219811027,39.86437343739569,0.0</coordinates>
                    </LinearRing>
                </outerBoundaryIs>
            </Polygon>
        </Placemark>
        <Placemark id="24">
            <name>CA107 (previously Harvey 1)</name>
            <description>Last Adjusted: 10/03/2026</description>
            <styleUrl>#27</styleUrl>
            <Polygon id="23">
                <outerBoundaryIs>
                    <LinearRing id="25">
                        <coordinates>-121.0281228367343,40.44937273819452,0.0 -120.99534863596341,40.47358357765205,0.0 -121.00538570237202,40.505834272714196,0.0 -121.04821559445591,40.51386616410586,0.0 -121.08098036486687,40.489649688703466,0.0 -121.07092469120576,40.45740696200837,0.0 -121.0281228367343,40.44937273819452,0.0</coordinates>
                    </LinearRing>
                </outerBoundaryIs>
            </Polygon>
        </Placemark>
        <Placemark id="31">
            <name>CA150 (previously Harvey 3)</name>
            <description>Last Adjusted: 10/03/2026</description>
            <styleUrl>#34</styleUrl>
            <Polygon id="30">
                <outerBoundaryIs>
                    <LinearRing id="32">
                        <coordinates>-121.00538570237202,40.505834272714196,0.0 -120.97258308256839,40.53003228889809,0.0 -120.98261975153409,40.56226782677051,0.0 -121.02547770443947,40.57029740504004,0.0 -121.05827090988238,40.54609375439224,0.0 -121.04821559445591,40.51386616410586,0.0 -121.00538570237202,40.505834272714196,0.0</coordinates>
                    </LinearRing>
                </outerBoundaryIs>
            </Polygon>
        </Placemark>
        <Placemark id="38">
            <name>CA124 (previously Whaleback Disperser 2)</name>
            <description>Last Adjusted: 10/02/2026</description>
            <styleUrl>#41</styleUrl>
            <Polygon id="37">
                <outerBoundaryIs>
                    <LinearRing id="39">
                        <coordinates>-121.62510330708221,40.6807799704055,0.0 -121.59251205693091,40.70508461800308,0.0 -121.60273191553689,40.737148525548236,0.0 -121.64556125756421,40.7448996467274,0.0 -121.67814233403551,40.72058950654726,0.0 -121.66790426010166,40.68853374177223,0.0 -121.62510330708221,40.6807799704055,0.0</coordinates>
                    </LinearRing>
                </outerBoundaryIs>
            </Polygon>
        </Placemark>
        <Placemark id="45">
            <name>CA077; pack origin: Whaleback</name>
            <description>Last Adjusted: 10/03/2026</description>
            <styleUrl>#48</styleUrl>
            <Polygon id="44">
                <outerBoundaryIs>
                    <LinearRing id="46">
                        <coordinates>-121.3468025306635,41.20351356769422,0.0 -121.31391504954286,41.227683370579356,0.0 -121.32411503809348,41.25961594912318,0.0 -121.36722116279581,41.26737080255233,0.0 -121.4000986893688,41.24319549899925,0.0 -121.38988006394231,41.21127084682544,0.0 -121.3468025306635,41.20351356769422,0.0</coordinates>
                    </LinearRing>
                </outerBoundaryIs>
            </Polygon>
        </Placemark>
        <Placemark id="52">
            <name>CA127 (previously Whaleback 2)</name>
            <description>Last Adjusted: 10/02/2026</description>
            <styleUrl>#55</styleUrl>
            <Polygon id="51">
                <outerBoundaryIs>
                    <LinearRing id="53">
                        <coordinates>-122.07719145726749,41.45238496507058,0.0 -122.04454371834582,41.476672358605775,0.0 -122.05496442781796,41.5083826519601,0.0 -122.09805102599655,41.51579742310694,0.0 -122.1306878988995,41.49150470527933,0.0 -122.12024905812713,41.45980254454673,0.0 -122.07719145726749,41.45238496507058,0.0</coordinates>
                    </LinearRing>
                </outerBoundaryIs>
            </Polygon>
        </Placemark>
        <Placemark id="59">
            <name>CA146</name>
            <description>Last Adjusted: 10/03/2026</description>
            <styleUrl>#62</styleUrl>
            <Polygon id="58">
                <outerBoundaryIs>
                    <LinearRing id="60">
                        <coordinates>-122.34492956377825,41.64745081515372,0.0 -122.31233686713678,41.67176467839428,0.0 -122.32284913734173,41.703354848222176,0.0 -122.36597210337246,41.71062297822485,0.0 -122.39855357770048,41.686303866791725,0.0 -122.38802332696862,41.654721877438384,0.0 -122.34492956377825,41.64745081515372,0.0</coordinates>
                    </LinearRing>
                </outerBoundaryIs>
            </Polygon>
        </Placemark>
        <Placemark id="66">
            <name>CA147 (previously Whaleback 4)</name>
            <description>Last Adjusted: 10/02/2026</description>
            <styleUrl>#69</styleUrl>
            <Polygon id="65">
                <outerBoundaryIs>
                    <LinearRing id="67">
                        <coordinates>-122.09536344213994,41.754238695064316,0.0 -122.06262181962808,41.77848418904405,0.0 -122.07307989652587,41.810082696338114,0.0 -122.116297844223,41.8174276423427,0.0 -122.14902851130893,41.793176852081814,0.0 -122.13855220478646,41.7615864160727,0.0 -122.09536344213994,41.754238695064316,0.0</coordinates>
                    </LinearRing>
                </outerBoundaryIs>
            </Polygon>
        </Placemark>
        <Placemark id="73">
            <name>CA121 (previously Whaleback Disperser 1)</name>
            <description>Last Adjusted: 10/03/2026</description>
            <styleUrl>#76</styleUrl>
            <Polygon id="72">
                <outerBoundaryIs>
                    <LinearRing id="74">
                        <coordinates>-122.22491530683877,41.77622586951787,0.0 -122.1922246717977,41.80049517053584,0.0 -122.20271937320035,41.83206147569571,0.0 -122.24592285778594,41.83935037318505,0.0 -122.27860238060188,41.81507580665372,0.0 -122.26808954976295,41.78351761208531,0.0 -122.22491530683877,41.77622586951787,0.0</coordinates>
                    </LinearRing>
                </outerBoundaryIs>
            </Polygon>
        </Placemark>
    </Document>
</kml>
