<?xml version="1.0" encoding="UTF-8"?>
<kml xmlns="http://www.opengis.net/kml/2.2" xmlns:gx="http://www.google.com/kml/ext/2.2">
    <Document id="1">
        <Style id="6">
            <LineStyle id="8">
                <color>ffa000a0</color>
                <colorMode>normal</colorMode>
                <width>3</width>
            </LineStyle>
            <PolyStyle id="7">
                <color>33a000a0</color>
                <colorMode>normal</colorMode>
                <fill>1</fill>
                <outline>1</outline>
            </PolyStyle>
        </Style>
        <Style id="13">
            <LineStyle id="15">
                <color>ffa000a0</color>
                <colorMode>normal</colorMode>
                <width>3</width>
            </LineStyle>
            <PolyStyle id="14">
                <color>33a000a0</color>
                <colorMode>normal</colorMode>
                <fill>1</fill>
                <outline>1</outline>
            </PolyStyle>
        </Style>
        <Style id="20">
            <LineStyle id="22">
                <color>ffa000a0</color>
                <colorMode>normal</colorMode>
                <width>3</width>
            </LineStyle>
            <PolyStyle id="21">
                <color>33a000a0</color>
                <colorMode>normal</colorMode>
                <fill>1</fill>
                <outline>1</outline>
            </PolyStyle>
        </Style>
        <Style id="27">
            <LineStyle id="29">
                <color>ffa000a0</color>
                <colorMode>normal</colorMode>
                <width>3</width>
            </LineStyle>
            <PolyStyle id="28">
                <color>33a000a0</color>
                <colorMode>normal</colorMode>
                <fill>1</fill>
                <outline>1</outline>
            </PolyStyle>
        </Style>
        <Style id="34">
            <LineStyle id="36">
                <color>ffa000a0</color>
                <colorMode>normal</colorMode>
                <width>3</width>
            </LineStyle>
            <PolyStyle id="35">
                <color>33a000a0</color>
                <colorMode>normal</colorMode>
                <fill>1</fill>
                <outline>1</outline>
            </PolyStyle>
        </Style>
        <Style id="41">
            <LineStyle id="43">
                <color>ffa000a0</color>
                <colorMode>normal</colorMode>
                <width>3</width>
            </LineStyle>
            <PolyStyle id="42">
                <color>33a000a0</color>
                <colorMode>normal</colorMode>
                <fill>1</fill>
                <outline>1</outline>
            </PolyStyle>
        </Style>
        <Style id="48">
            <LineStyle id="50">
                <color>ffa000a0</color>
                <colorMode>normal</colorMode>
                <width>3</width>
            </LineStyle>
            <PolyStyle id="49">
                <color>33a000a0</color>
                <colorMode>normal</colorMode>
                <fill>1</fill>
                <outline>1</outline>
            </PolyStyle>
        </Style>
        <Style id="55">
            <LineStyle id="57">
                <color>ffa000a0</color>
                <colorMode>normal</colorMode>
                <width>3</width>
            </LineStyle>
            <PolyStyle id="56">
                <color>33a000a0</color>
                <colorMode>normal</colorMode>
                <fill>1</fill>
                <outline>1</outline>
            </PolyStyle>
        </Style>
        <Style id="62">
            <LineStyle id="64">
                <color>ffa000a0</color>
                <colorMode>normal</colorMode>
                <width>3</width>
            </LineStyle>
            <PolyStyle id="63">
                <color>33a000a0</color>
                <colorMode>normal</colorMode>
                <fill>1</fill>
                <outline>1</outline>
            </PolyStyle>
        </Style>
        <Style id="69">
            <LineStyle id="71">
                <color>ffa000a0</color>
                <colorMode>normal</colorMode>
                <width>3</width>
            </LineStyle>
            <PolyStyle id="70">
                <color>33a000a0</color>
                <colorMode>normal</colorMode>
                <fill>1</fill>
                <outline>1</outline>
            </PolyStyle>
        </Style>
        <Style id="76">
            <LineStyle id="78">
                <color>ffa000a0</color>
                <colorMode>normal</colorMode>
                <width>3</width>
            </LineStyle>
            <PolyStyle id="77">
                <color>33a000a0</color>
                <colorMode>normal</colorMode>
                <fill>1</fill>
                <outline>1</outline>
            </PolyStyle>
        </Style>
        <Placemark id="3">
            <name>CA091 (previously Yowlumni Disperser)</name>
            <description>Last Adjusted: 10/10/2026</description>
            <styleUrl>#6</styleUrl>
            <Polygon id="2">
                <outerBoundaryIs>
                    <LinearRing id="4">
                        <coordinates>-118.64296897601527,35.98881871784515,0.0 -118.61063046324843,36.01303436831596,0.0 -118.61961539971998,36.04701612287728,0.0 -118.66095761369316,36.056774417160526,0.0 -118.69329011319566,36.03255209221837,0.0 -118.68428642672541,35.99857815180284,0.0 -118.64296897601527,35.98881871784515,0.0</coordinates>
                    </LinearRing>
                </outerBoundaryIs>
            </Polygon>
        </Placemark>
        <Placemark id="10">
            <name>CA195</name>
            <description>Last Adjusted: 10/10/2026</description>
            <styleUrl>#13</styleUrl>
            <Polygon id="9">
                <outerBoundaryIs>
                    <LinearRing id="11">
                        <coordinates>-120.33082987426111,39.61190127027127,0.0 -120.29803486434173,39.63607634852333,0.0 -120.30780135167763,39.668727181994,0.0 -120.35038170286225,39.677195074764825,0.0 -120.38316825095414,39.65301413847316,0.0 -120.37338292668703,39.62037117171774,0.0 -120.33082987426111,39.61190127027127,0.0</coordinates>
                    </LinearRing>
                </outerBoundaryIs>
            </Polygon>
        </Placemark>
        <Placemark id="17">
            <name>CA131</name>
            <description>Last Adjusted: 10/10/2026</description>
            <styleUrl>#20</styleUrl>
            <Polygon id="16">
                <outerBoundaryIs>
                    <LinearRing id="18">
                        <coordinates>-120.47149784996357,39.946245743476595,0.0 -120.43865270273437,39.97040638232014,0.0 -120.44848975162101,40.00292337983288,0.0 -120.49119081888223,40.01127188785052,0.0 -120.52402728190555,39.987105455055946,0.0 -120.5141713790884,39.95459631245814,0.0 -120.47149784996357,39.946245743476595,0.0</coordinates>
                    </LinearRing>
                </outerBoundaryIs>
            </Polygon>
        </Placemark>
        <Placemark id="24">
            <name>CA107 (previously Harvey 1)</name>
            <description>Last Adjusted: 10/09/2026</description>
            <styleUrl>#27</styleUrl>
            <Polygon id="23">
                <outerBoundaryIs>
                    <LinearRing id="25">
                        <coordinates>-120.95982493660608,40.61867328450404,0.0 -120.92696537260161,40.64284545138953,0.0 -120.93700120988935,40.67505053034441,0.0 -120.97991535404108,40.68307554048959,0.0 -121.01276553596132,40.65889774184438,0.0 -121.00271097353614,40.62670056900648,0.0 -120.95982493660608,40.61867328450404,0.0</coordinates>
                    </LinearRing>
                </outerBoundaryIs>
            </Polygon>
        </Placemark>
        <Placemark id="31">
            <name>CA150 (previously Harvey 3)</name>
            <description>Last Adjusted: 10/09/2026</description>
            <styleUrl>#34</styleUrl>
            <Polygon id="30">
                <outerBoundaryIs>
                    <LinearRing id="32">
                        <coordinates>-120.95982493660608,40.61867328450404,0.0 -120.92696537260161,40.64284545138953,0.0 -120.93700120988935,40.67505053034441,0.0 -120.97991535404108,40.68307554048959,0.0 -121.01276553596132,40.65889774184438,0.0 -121.00271097353614,40.62670056900648,0.0 -120.95982493660608,40.61867328450404,0.0</coordinates>
                    </LinearRing>
                </outerBoundaryIs>
            </Polygon>
        </Placemark>
        <Placemark id="38">
            <name>CA124 (previously Whaleback Disperser 2)</name>
            <description>Last Adjusted: 10/10/2026</description>
            <styleUrl>#41</styleUrl>
            <Polygon id="37">
                <outerBoundaryIs>
                    <LinearRing id="39">
                        <coordinates>-121.67814233403551,40.72058950654726,0.0 -121.64556125756421,40.7448996467274,0.0 -121.65579928059647,40.77694014714649,0.0 -121.69863658514248,40.784662357933335,0.0 -121.73120741807593,40.76034674024436,0.0 -121.72095120797877,40.7283143932676,0.0 -121.67814233403551,40.72058950654726,0.0</coordinates>
                    </LinearRing>
                </outerBoundaryIs>
            </Polygon>
        </Placemark>
        <Placemark id="45">
            <name>CA077; pack origin: Whaleback</name>
            <description>Last Adjusted: 10/10/2026</description>
            <styleUrl>#48</styleUrl>
            <Polygon id="44">
                <outerBoundaryIs>
                    <LinearRing id="46">
                        <coordinates>-121.24807257639205,41.27599085874438,0.0 -121.21511758168582,41.300128482377744,0.0 -121.22529858911885,41.332053210138156,0.0 -121.26845335404708,41.339832443896896,0.0 -121.30139849656962,41.31568930582326,0.0 -121.29119874451507,41.28377245260841,0.0 -121.24807257639205,41.27599085874438,0.0</coordinates>
                    </LinearRing>
                </outerBoundaryIs>
            </Polygon>
        </Placemark>
        <Placemark id="52">
            <name>CA146</name>
            <description>Last Adjusted: 10/10/2026</description>
            <styleUrl>#55</styleUrl>
            <Polygon id="51">
                <outerBoundaryIs>
                    <LinearRing id="53">
                        <coordinates>-121.9881109837516,41.67620199000655,0.0 -121.95534766571393,41.700436846793366,0.0 -121.96576888729102,41.73208349545645,0.0 -122.00897173505444,41.73948723962929,0.0 -122.04172424120254,41.71524705682258,0.0 -122.03128473006872,41.683608459862036,0.0 -121.9881109837516,41.67620199000655,0.0</coordinates>
                    </LinearRing>
                </outerBoundaryIs>
            </Polygon>
        </Placemark>
        <Placemark id="59">
            <name>CA147 (previously Whaleback 4)</name>
            <description>Last Adjusted: 10/10/2026</description>
            <styleUrl>#62</styleUrl>
            <Polygon id="58">
                <outerBoundaryIs>
                    <LinearRing id="60">
                        <coordinates>-121.9881109837516,41.67620199000655,0.0 -121.95534766571393,41.700436846793366,0.0 -121.96576888729102,41.73208349545645,0.0 -122.00897173505444,41.73948723962929,0.0 -122.04172424120254,41.71524705682258,0.0 -122.03128473006872,41.683608459862036,0.0 -121.9881109837516,41.67620199000655,0.0</coordinates>
                    </LinearRing>
                </outerBoundaryIs>
            </Polygon>
        </Placemark>
        <Placemark id="66">
            <name>CA121 (previously Whaleback Disperser 1)</name>
            <description>Last Adjusted: 10/09/2026</description>
            <styleUrl>#69</styleUrl>
            <Polygon id="65">
                <outerBoundaryIs>
                    <LinearRing id="67">
                        <coordinates>-121.91215247809633,41.6930037321104,0.0 -121.87934944524885,41.71721995031696,0.0 -121.8897523077237,41.7488746205873,0.0 -121.93297658073121,41.756305055067244,0.0 -121.96576888729102,41.73208349545645,0.0 -121.95534766571393,41.700436846793366,0.0 -121.91215247809633,41.6930037321104,0.0</coordinates>
                    </LinearRing>
                </outerBoundaryIs>
            </Polygon>
        </Placemark>
        <Placemark id="73">
            <name>CA127 (previously Whaleback 2)</name>
            <description>Last Adjusted: 10/09/2026</description>
            <styleUrl>#76</styleUrl>
            <Polygon id="72">
                <outerBoundaryIs>
                    <LinearRing id="74">
                        <coordinates>-121.96576888729102,41.73208349545645,0.0 -121.93297658073121,41.756305055067244,0.0 -121.943397901449,41.78793568151332,0.0 -121.98662987669483,41.79533672080133,0.0 -122.01941138512164,41.77110983451664,0.0 -122.00897173505444,41.73948723962929,0.0 -121.96576888729102,41.73208349545645,0.0</coordinates>
                    </LinearRing>
                </outerBoundaryIs>
            </Polygon>
        </Placemark>
    </Document>
</kml>
